{
  "type": "FeatureCollection",
  "generator": "overpass-turbo",
  "copyright": "The data included in this document is from www.openstreetmap.org. The data is made available under ODbL.",
  "timestamp": "2024-06-12T11:23:45Z",
  "features": [
    {
      "type": "Feature",
      "properties": {
        "@id": "node/565876567",
        "addr:city": "Surquillo",
        "addr:housenumber": "410",
        "addr:street": "Calle Los Halcones",
        "amenity": "clinic",
        "healthcare": "clinic",
        "healthcare:speciality": "general",
        "name": "Clinica Santa Teresa",
        "phone": "+511 2212027",
        "website": "http://www.clinicasantateresa.com.pe/"
      },
      "geometry": {
        "type": "Point",
        "coordinates": [
          -77.0207286,
          -12.104425
        ]
      },
      "id": "node/565876567"
    },
    {
      "type": "Feature",
      "properties": {
        "@id": "node/606936954",
        "addr:city": "San Miguel",
        "addr:housenumber": "170",
        "addr:street": "Calle Manuel Raygada",
        "amenity": "clinic",
        "contact:facebook": "https://www.facebook.com/sanjudastadeoclinica/",
        "healthcare": "clinic",
        "healthcare:speciality": "general",
        "name": "Clinica San Judas Tadeo",
        "opening_hours": "24/7",
        "phone": "+511 2191100",
        "website": "https://www.clinicasanjudastadeo.com.pe/"
      },
      "geometry": {
        "type": "Point",
        "coordinates": [
          -77.0801214,
          -12.0799935
        ]
      },
      "id": "node/606936954"
    },
    {
      "type": "Feature",
      "properties": {
        "@id": "node/1658531534",
        "amenity": "clinic"
      },
      "geometry": {
        "type": "Point",
        "coordinates": [
          -77.0228566,
          -12.0779987
        ]
      },
      "id": "node/1658531534"
    },
    {
      "type": "Feature",
      "properties": {
        "@id": "node/1904507986",
        "addr:city": "La Victoria",
        "addr:housenumber": "700",
        "addr:street": "Avenida Manco Capac",
        "amenity": "clinic",
        "contact:facebook": "https://es-la.facebook.com/prontosalud.solidario/",
        "contact:instagram": "https://www.instagram.com/pronto_salud/",
        "contact:twitter": "https://twitter.com/pronto_salud",
        "contact:youtube": "https://www.youtube.com/channel/UCBKZirafPmo3rEdAian2vcA",
        "email": "info@prontosalud.com.pe",
        "healthcare": "clinic",
        "healthcare:speciality": "general",
        "name": "Policlínico Pronto Salud Solidario",
        "old_name": "Centro Médico Solidario La Victoria",
        "opening_hours": "Mo-Sa 07:00-19:00",
        "phone": "+511 6372129",
        "website": "http://clinicaprontosaludsolidario.godaddysites.com/"
      },
      "geometry": {
        "type": "Point",
        "coordinates": [
          -77.0289198,
          -12.0673621
        ]
      },
      "id": "node/1904507986"
    },
    {
      "type": "Feature",
      "properties": {
        "@id": "node/1904508029",
        "addr:city": "San Juan de Miraflores",
        "addr:housenumber": "747",
        "addr:street": "Avenida San Juan",
        "amenity": "clinic",
        "contact:facebook": "https://es-la.facebook.com/RedDeSaludSolidario/",
        "healthcare": "clinic",
        "healthcare:speciality": "general",
        "name": "Policlinico Solidario San Juan de Miraflores",
        "operator": "Red de Salud Solidario",
        "operator:type": "private",
        "phone": "+511 4665676"
      },
      "geometry": {
        "type": "Point",
        "coordinates": [
          -76.9733039,
          -12.1614071
        ]
      },
      "id": "node/1904508029"
    },
    {
      "type": "Feature",
      "properties": {
        "@id": "node/1943486021",
        "amenity": "clinic",
        "emergency": "yes",
        "healthcare": "clinic",
        "name": "Centro Médico PUCP",
        "wheelchair": "yes"
      },
      "geometry": {
        "type": "Point",
        "coordinates": [
          -77.0793665,
          -12.0698105
        ]
      },
      "id": "node/1943486021"
    },
    {
      "type": "Feature",
      "properties": {
        "@id": "node/2316632194",
        "amenity": "clinic",
        "healthcare": "clinic",
        "healthcare:speciality": "ophthalmology",
        "name": "Clinica Ofmatologica Wong",
        "toilets:wheelchair": "no",
        "wheelchair": "yes",
        "wheelchair:description": "Todo bien. Todo primer piso. En el baño entra la silla"
      },
      "geometry": {
        "type": "Point",
        "coordinates": [
          -77.0692218,
          -11.9911458
        ]
      },
      "id": "node/2316632194"
    },
    {
      "type": "Feature",
      "properties": {
        "@id": "node/2681625205",
        "amenity": "hospital",
        "emergency": "yes",
        "healthcare": "hospital",
        "name": "Clinica San Pablo"
      },
      "geometry": {
        "type": "Point",
        "coordinates": [
          -76.6025966,
          -12.7593408
        ]
      },
      "id": "node/2681625205"
    },
    {
      "type": "Feature",
      "properties": {
        "@id": "node/2703608474",
        "addr:city": "San Martín de Porres",
        "addr:street": "Jirón Junín",
        "amenity": "hospital",
        "name": "Hospital de la Solidaridad",
        "toilets:wheelchair": "no",
        "website": "https://www.sisol.gob.pe/",
        "wheelchair": "limited",
        "wheelchair:description": "- No tiene ascensor solo hay escaleras. - Algunas consultas son en el 2do piso como terapia física, ginecología y psicologia."
      },
      "geometry": {
        "type": "Point",
        "coordinates": [
          -77.0896429,
          -12.0298427
        ]
      },
      "id": "node/2703608474"
    },
    {
      "type": "Feature",
      "properties": {
        "@id": "node/2745595149",
        "addr:city": "Santiago de Surco",
        "addr:housenumber": "T160",
        "addr:street": "Pasillo Cinemark",
        "amenity": "clinic",
        "healthcare": "clinic",
        "healthcare:speciality": "general",
        "level": "0",
        "level:ref": "Piso 1",
        "name": "Jockey Salud",
        "opening_hours": "Mo-Su 10:00-21:00",
        "operator": "Jockey Plaza",
        "operator:type": "private",
        "phone": "+51 1 7123456",
        "website": "https://www.jockeysalud.com.pe/"
      },
      "geometry": {
        "type": "Point",
        "coordinates": [
          -76.9772137,
          -12.0852047
        ]
      },
      "id": "node/2745595149"
    },
    {
      "type": "Feature",
      "properties": {
        "@id": "node/2838647365",
        "addr:housenumber": "339",
        "addr:street": "Jose Bazzochi",
        "amenity": "clinic",
        "emergency": "no",
        "name": "Clínica de Otorrino",
        "phone": "+51 1 4720803"
      },
      "geometry": {
        "type": "Point",
        "coordinates": [
          -77.0233183,
          -12.082536
        ]
      },
      "id": "node/2838647365"
    },
    {
      "type": "Feature",
      "properties": {
        "@id": "node/3063482681",
        "addr:city": "San Luis",
        "addr:housenumber": "2161",
        "addr:street": "Avenida Circunvalación",
        "amenity": "clinic",
        "healthcare": "clinic",
        "healthcare:speciality": "general",
        "name": "EsSalud Policlínico San Luis",
        "opening_hours": "Mo-Sa 06:00-19:00; Su 09:00-13:00",
        "operator": "EsSalud",
        "operator:type": "private",
        "phone": "+511 3262599"
      },
      "geometry": {
        "type": "Point",
        "coordinates": [
          -76.9920857,
          -12.0732067
        ]
      },
      "id": "node/3063482681"
    },
    {
      "type": "Feature",
      "properties": {
        "@id": "node/3063665204",
        "amenity": "clinic",
        "name": "Asmat"
      },
      "geometry": {
        "type": "Point",
        "coordinates": [
          -76.9869837,
          -12.0870065
        ]
      },
      "id": "node/3063665204"
    },
    {
      "type": "Feature",
      "properties": {
        "@id": "node/3230315412",
        "addr:city": "Jesús María",
        "addr:housenumber": "223",
        "addr:street": "Jirón Coronel Cipriano Zegarra",
        "amenity": "clinic",
        "healthcare": "clinic",
        "name": "Centro Nacional de Salud Renal",
        "operator": "EsSalud",
        "operator:type": "public",
        "phone": "+51 1 4719999",
        "website": "http://www.essalud.gob.pe/centro-nacional-de-salud-renal/"
      },
      "geometry": {
        "type": "Point",
        "coordinates": [
          -77.0384851,
          -12.0772823
        ]
      },
      "id": "node/3230315412"
    },
    {
      "type": "Feature",
      "properties": {
        "@id": "node/3266155861",
        "amenity": "clinic",
        "name": "Puesto de Salud La Fraternidad",
        "operator": "Ministerio de Salud del Perú",
        "phone": "+51 1 3716685",
        "ref:category": "I-2",
        "ref:microred": "3",
        "ref:red": "1"
      },
      "geometry": {
        "type": "Point",
        "coordinates": [
          -76.8075937,
          -12.0228249
        ]
      },
      "id": "node/3266155861"
    },
    {
      "type": "Feature",
      "properties": {
        "@id": "node/3729585359",
        "addr:city": "San Miguel",
        "amenity": "clinic",
        "name": "Providencia"
      },
      "geometry": {
        "type": "Point",
        "coordinates": [
          -77.091435,
          -12.0750372
        ]
      },
      "id": "node/3729585359"
    },
    {
      "type": "Feature",
      "properties": {
        "@id": "node/3810263474",
        "addr:city": "San Isidro",
        "addr:housenumber": "3058",
        "addr:street": "Avenida Paseo de la República",
        "amenity": "clinic",
        "name": "Clínica Internacional - Medicentro San Isidro",
        "source": "Reconocimiento cartográfico por KG 2016",
        "website": "https://www.clinicainternacional.com.pe"
      },
      "geometry": {
        "type": "Point",
        "coordinates": [
          -77.0239592,
          -12.0930776
        ]
      },
      "id": "node/3810263474"
    },
    {
      "type": "Feature",
      "properties": {
        "@id": "node/3992441916",
        "amenity": "clinic",
        "healthcare": "clinic",
        "name": "Centro de Salud Santa María"
      },
      "geometry": {
        "type": "Point",
        "coordinates": [
          -77.0535756,
          -12.0780341
        ]
      },
      "id": "node/3992441916"
    },
    {
      "type": "Feature",
      "properties": {
        "@id": "node/4024888158",
        "addr:street": "Jirón Lima",
        "amenity": "hospital",
        "name": "Puesto de Salud \"Puente Auco\"",
        "operator": "Gobierno Regional",
        "phone": "+51 954751039",
        "ref:category": "I-2",
        "ref:microred": "4",
        "ref:red": "7"
      },
      "geometry": {
        "type": "Point",
        "coordinates": [
          -75.9503575,
          -12.586091
        ]
      },
      "id": "node/4024888158"
    },
    {
      "type": "Feature",
      "properties": {
        "@id": "node/4059009984",
        "amenity": "clinic",
        "name": "Clínica Oftalmológica Divino Niño Jesús"
      },
      "geometry": {
        "type": "Point",
        "coordinates": [
          -76.9746011,
          -12.1715553
        ]
      },
      "id": "node/4059009984"
    },
    {
      "type": "Feature",
      "properties": {
        "@id": "node/4077392666",
        "addr:city": "San Isidro",
        "addr:housenumber": "1756",
        "addr:street": "Avenida Perez Araníbar",
        "amenity": "clinic",
        "healthcare": "clinic",
        "healthcare:speciality": "general",
        "name": "Centro de Salud San Isidro",
        "opening_hours": "Mo-Sa 08:00-14:00",
        "operator": "Ministerio de Salud",
        "phone": "+511 2643125",
        "ref:category": "I-3",
        "ref:microred": "4",
        "ref:red": "21"
      },
      "geometry": {
        "type": "Point",
        "coordinates": [
          -77.0551049,
          -12.1068576
        ]
      },
      "id": "node/4077392666"
    },
    {
      "type": "Feature",
      "properties": {
        "@id": "node/4103896369",
        "addr:city": "La Victoria",
        "addr:street": "Carlos Villaran",
        "amenity": "clinic",
        "name": "CheckSalud"
      },
      "geometry": {
        "type": "Point",
        "coordinates": [
          -77.0212611,
          -12.0888667
        ]
      },
      "id": "node/4103896369"
    },
    {
      "type": "Feature",
      "properties": {
        "@id": "node/4109575491",
        "addr:city": "Jesús María",
        "addr:housenumber": "650",
        "addr:postcode": "15072",
        "addr:street": "Avenida Gregorio Escobedo",
        "amenity": "clinic",
        "healthcare": "clinic",
        "internet_access": "wlan",
        "name": "San Felipe",
        "phone": "+511 2190000",
        "website": "https://www.clinicasanfelipe.com"
      },
      "geometry": {
        "type": "Point",
        "coordinates": [
          -77.0543377,
          -12.0860358
        ]
      },
      "id": "node/4109575491"
    },
    {
      "type": "Feature",
      "properties": {
        "@id": "node/4133837854",
        "addr:housenumber": "1222",
        "addr:street": "Avenida Villa Maria",
        "amenity": "clinic",
        "name": "Policlínico ESSALUD VIlla María",
        "operator": "Essalud",
        "ref:category": "I-3",
        "ref:microred": "0",
        "ref:red": "0"
      },
      "geometry": {
        "type": "Point",
        "coordinates": [
          -76.9412699,
          -12.1600499
        ]
      },
      "id": "node/4133837854"
    },
    {
      "type": "Feature",
      "properties": {
        "@id": "node/4133837855",
        "amenity": "clinic",
        "name": "ESSALUD CAM - Centro del Adulto Mayor"
      },
      "geometry": {
        "type": "Point",
        "coordinates": [
          -76.9414427,
          -12.1598947
        ]
      },
      "id": "node/4133837855"
    },
    {
      "type": "Feature",
      "properties": {
        "@id": "node/4134425766",
        "amenity": "clinic",
        "name": "Puesto de Salud Villa Solidaridad"
      },
      "geometry": {
        "type": "Point",
        "coordinates": [
          -76.959163,
          -12.1677752
        ]
      },
      "id": "node/4134425766"
    },
    {
      "type": "Feature",
      "properties": {
        "@id": "node/4139697957",
        "addr:city": "Magdalena del Mar",
        "addr:housenumber": "375",
        "addr:postcode": "15086",
        "addr:street": "Avenida La Marina",
        "amenity": "clinic",
        "healthcare": "clinic",
        "name": "Adelgace Perú",
        "phone": "+51 1 4613245",
        "website": "https://www.drolaya.com/"
      },
      "geometry": {
        "type": "Point",
        "coordinates": [
          -77.065253,
          -12.0841499
        ]
      },
      "id": "node/4139697957"
    },
    {
      "type": "Feature",
      "properties": {
        "@id": "node/4164220290",
        "addr:housenumber": "1656",
        "addr:street": "Avenida Manuel Cipriano Dulanto",
        "amenity": "clinic",
        "name": "Global Laser - Clinica de Ojos",
        "opening_hours": "Mo-Fr 09:00-20:00; Sa 09:00-13:00",
        "phone": "+51 1 4624205",
        "website": "http://www.globallaserpe.com"
      },
      "geometry": {
        "type": "Point",
        "coordinates": [
          -77.072392,
          -12.0768316
        ]
      },
      "id": "node/4164220290"
    },
    {
      "type": "Feature",
      "properties": {
        "@id": "node/4170786720",
        "addr:city": "Santiago de Surco",
        "addr:street": "Avenida Del Espinar",
        "amenity": "clinic",
        "healthcare": "clinic",
        "name": "Exilaser",
        "website": "https://www.exilaserperu.com/"
      },
      "geometry": {
        "type": "Point",
        "coordinates": [
          -76.9890997,
          -12.1120682
        ]
      },
      "id": "node/4170786720"
    },
    {
      "type": "Feature",
      "properties": {
        "@id": "node/4203505990",
        "addr:city": "Jesús María",
        "addr:housenumber": "417",
        "addr:street": "Jirón Coronel Cipriano Zegarra",
        "alt_name": "Instituto Nacional del Corazón",
        "amenity": "clinic",
        "description": "Instituto Nacional Cardiovascular \"Carlos Alberto Peschiera Carrillo\"",
        "healthcare": "clinic",
        "healthcare:speciality": "cardiology",
        "name": "Instituto Nacional Cardiovascular",
        "note": "Ver http://vital.rpp.pe/expertos/el-29-de-marzo-inauguran-instituto-nacional-del-corazon-noticia-251630",
        "official_name": "Instituto Nacional Cardiovascular “Carlos Alberto Peschiera Carrillo”",
        "operator": "Essalud",
        "operator:type": "public",
        "operator:wikidata": "Q6123930",
        "operator:wikipedia": "es:Seguro Social de Salud del Perú",
        "phone": "+51 1 4111560",
        "short_name": "INCOR",
        "start_date": "1992",
        "website": "http://portal.essalud.gob.pe/incor/index.html"
      },
      "geometry": {
        "type": "Point",
        "coordinates": [
          -77.0400213,
          -12.0771981
        ]
      },
      "id": "node/4203505990"
    },
    {
      "type": "Feature",
      "properties": {
        "@id": "node/4216263790",
        "addr:city": "San Isidro",
        "addr:housenumber": "655",
        "addr:street": "Avenida Guardia Civil",
        "amenity": "clinic",
        "email": "informes@inmater.pe",
        "healthcare": "clinic",
        "healthcare:speciality": "fertility",
        "name": "Clinica Inmater",
        "opening_hours": "Mo-Fr 07:00-20:00; Sa 08:00-13:00",
        "phone": "+51 1 4762727",
        "website": "https://inmater.pe/portal/"
      },
      "geometry": {
        "type": "Point",
        "coordinates": [
          -77.0108016,
          -12.0962128
        ]
      },
      "id": "node/4216263790"
    },
    {
      "type": "Feature",
      "properties": {
        "@id": "node/4240018095",
        "amenity": "clinic",
        "name": "Instituto Peruano de Neurociencias"
      },
      "geometry": {
        "type": "Point",
        "coordinates": [
          -77.0353845,
          -12.0812493
        ]
      },
      "id": "node/4240018095"
    },
    {
      "type": "Feature",
      "properties": {
        "@id": "node/4245054595",
        "addr:city": "Santiago de Surco",
        "addr:housenumber": "5362",
        "addr:street": "Avenida Alfredo Benavides",
        "amenity": "clinic",
        "healthcare:speciality": "general",
        "name": "Clínica Maison de Santé del este",
        "operator": "Grupo SFB",
        "source": "Reconocimiento cartográfico por KG 2016",
        "website": "http://www.maisondesante.org.pe/"
      },
      "geometry": {
        "type": "Point",
        "coordinates": [
          -76.9810708,
          -12.1303693
        ]
      },
      "id": "node/4245054595"
    },
    {
      "type": "Feature",
      "properties": {
        "@id": "node/4249561589",
        "alt_name": "Examen medico crucero",
        "amenity": "clinic",
        "name": "Crucero"
      },
      "geometry": {
        "type": "Point",
        "coordinates": [
          -77.048895,
          -12.1126029
        ]
      },
      "id": "node/4249561589"
    },
    {
      "type": "Feature",
      "properties": {
        "@id": "node/4270690689",
        "amenity": "clinic",
        "name": "Examen medico"
      },
      "geometry": {
        "type": "Point",
        "coordinates": [
          -77.0951455,
          -12.0781777
        ]
      },
      "id": "node/4270690689"
    },
    {
      "type": "Feature",
      "properties": {
        "@id": "node/4277059151",
        "addr:full": "Peru N° 3595 - Urb. Peru",
        "amenity": "clinic",
        "name": "Peru Iv Zona",
        "operator": "Minsa",
        "phone": "+511 5677889",
        "ref:category": "I-3",
        "ref:microred": "2",
        "ref:red": "25"
      },
      "geometry": {
        "type": "Point",
        "coordinates": [
          -77.0860539,
          -12.0310754
        ]
      },
      "id": "node/4277059151"
    },
    {
      "type": "Feature",
      "properties": {
        "@id": "node/4286398112",
        "amenity": "clinic",
        "name": "Clinica Versalles",
        "source": "Reconocimiento cartogáfico de campo por KG 2016."
      },
      "geometry": {
        "type": "Point",
        "coordinates": [
          -77.0504696,
          -11.9455466
        ]
      },
      "id": "node/4286398112"
    },
    {
      "type": "Feature",
      "properties": {
        "@id": "node/4293704632",
        "addr:housenumber": "206",
        "addr:street": "Cabo Gutarra",
        "amenity": "clinic",
        "name": "DIGESALUD",
        "opening_hours": "Mo-Sa 10:00-22:00"
      },
      "geometry": {
        "type": "Point",
        "coordinates": [
          -77.06243,
          -12.0836406
        ]
      },
      "id": "node/4293704632"
    },
    {
      "type": "Feature",
      "properties": {
        "@id": "node/4319865889",
        "amenity": "clinic",
        "name": "Cerema"
      },
      "geometry": {
        "type": "Point",
        "coordinates": [
          -76.9978492,
          -12.0875492
        ]
      },
      "id": "node/4319865889"
    },
    {
      "type": "Feature",
      "properties": {
        "@id": "node/4326822809",
        "addr:city": "Lima",
        "addr:street": "Avenida Alfredo Benavides",
        "amenity": "clinic",
        "name": "Oncosalud"
      },
      "geometry": {
        "type": "Point",
        "coordinates": [
          -77.0076635,
          -12.1277091
        ]
      },
      "id": "node/4326822809"
    },
    {
      "type": "Feature",
      "properties": {
        "@id": "node/4331493649",
        "addr:city": "San Miguel",
        "addr:street": "Brigida Silva de Ochoa",
        "amenity": "clinic",
        "name": "EsSalud",
        "source": "Reconocimiento cartográfico por KG 2016."
      },
      "geometry": {
        "type": "Point",
        "coordinates": [
          -77.0869114,
          -12.0783824
        ]
      },
      "id": "node/4331493649"
    },
    {
      "type": "Feature",
      "properties": {
        "@id": "node/4331509097",
        "addr:street": "Puente Piedra",
        "amenity": "clinic",
        "name": "Compaña de Prevencion de Salud",
        "source": "Reconocimiento cartogáfico de campo por KG 2016."
      },
      "geometry": {
        "type": "Point",
        "coordinates": [
          -77.0766257,
          -11.8634532
        ]
      },
      "id": "node/4331509097"
    },
    {
      "type": "Feature",
      "properties": {
        "@id": "node/4332510839",
        "addr:street": "Calle La Dignidad",
        "amenity": "clinic",
        "name": "Consultorio Medicos",
        "source": "Reconocimiento cartográfico por KG 2016."
      },
      "geometry": {
        "type": "Point",
        "coordinates": [
          -77.0776145,
          -11.9361746
        ]
      },
      "id": "node/4332510839"
    },
    {
      "type": "Feature",
      "properties": {
        "@id": "node/4332586337",
        "addr:street": "Honestidad",
        "amenity": "clinic",
        "name": "Policlinico",
        "source": "Reconocimiento cartográfico por KG 2016."
      },
      "geometry": {
        "type": "Point",
        "coordinates": [
          -77.0745049,
          -11.9339123
        ]
      },
      "id": "node/4332586337"
    },
    {
      "type": "Feature",
      "properties": {
        "@id": "node/4332663082",
        "addr:street": "Avenida Buenos Aires",
        "amenity": "clinic",
        "name": "JJSalud",
        "source": "Reconocimiento cartogáfico de campo por KG 2016."
      },
      "geometry": {
        "type": "Point",
        "coordinates": [
          -77.0765169,
          -11.866934
        ]
      },
      "id": "node/4332663082"
    },
    {
      "type": "Feature",
      "properties": {
        "@id": "node/4334092266",
        "addr:street": "Avenida Buenos Aires",
        "amenity": "clinic",
        "name": "JJ Salud Policlínico",
        "source": "Reconocimiento cartogáfico de campo por KG 2016."
      },
      "geometry": {
        "type": "Point",
        "coordinates": [
          -77.0767011,
          -11.8670562
        ]
      },
      "id": "node/4334092266"
    },
    {
      "type": "Feature",
      "properties": {
        "@id": "node/4334117390",
        "addr:street": "Avenida Tupac Amaru",
        "amenity": "clinic",
        "name": "Laboratorio Clínico Ze Lab",
        "source": "Reconocimiento cartográfico por KG 2016."
      },
      "geometry": {
        "type": "Point",
        "coordinates": [
          -77.0395387,
          -11.9129454
        ]
      },
      "id": "node/4334117390"
    },
    {
      "type": "Feature",
      "properties": {
        "@id": "node/4334117398",
        "addr:housenumber": "8023",
        "addr:street": "Avenida Tupac Amaru",
        "amenity": "clinic",
        "name": "Centro Médico",
        "source": "Reconocimiento cartográfico por KG 2016."
      },
      "geometry": {
        "type": "Point",
        "coordinates": [
          -77.0396439,
          -11.9131593
        ]
      },
      "id": "node/4334117398"
    },
    {
      "type": "Feature",
      "properties": {
        "@id": "node/4334117399",
        "addr:housenumber": "8029",
        "addr:street": "Avenida Tupac Amaru",
        "amenity": "clinic",
        "name": "Bioanalizate",
        "source": "Reconocimiento cartográfico por KG 2016."
      },
      "geometry": {
        "type": "Point",
        "coordinates": [
          -77.039606,
          -11.9130798
        ]
      },
      "id": "node/4334117399"
    },
    {
      "type": "Feature",
      "properties": {
        "@id": "node/4334133112",
        "addr:street": "Avenida Tupac Amaru",
        "amenity": "clinic",
        "name": "Policlinico Cesmyn",
        "source": "Reconocimiento cartográfico por KG 2016."
      },
      "geometry": {
        "type": "Point",
        "coordinates": [
          -77.0398888,
          -11.9136006
        ]
      },
      "id": "node/4334133112"
    },
    {
      "type": "Feature",
      "properties": {
        "@id": "node/4334133140",
        "addr:street": "Avenida Tupac Amaru",
        "amenity": "clinic",
        "name": "Policlinico Neo Salud Social",
        "source": "Reconocimiento cartográfico por KG 2016."
      },
      "geometry": {
        "type": "Point",
        "coordinates": [
          -77.0402539,
          -11.9143096
        ]
      },
      "id": "node/4334133140"
    },
    {
      "type": "Feature",
      "properties": {
        "@id": "node/4334159928",
        "addr:street": "Avenida Tupac Amaru",
        "amenity": "clinic",
        "name": "Fisio Service",
        "note": "physical therapy",
        "source": "Reconocimiento cartográfico por KG 2016."
      },
      "geometry": {
        "type": "Point",
        "coordinates": [
          -77.0403944,
          -11.9145677
        ]
      },
      "id": "node/4334159928"
    },
    {
      "type": "Feature",
      "properties": {
        "@id": "node/4334408236",
        "addr:street": "Avenida Juan Velazco Alvarado",
        "amenity": "clinic",
        "name": "Clinicas Asociadas",
        "source": "Kaart Ground Survey 2017"
      },
      "geometry": {
        "type": "Point",
        "coordinates": [
          -76.9442594,
          -12.2105038
        ]
      },
      "id": "node/4334408236"
    },
    {
      "type": "Feature",
      "properties": {
        "@id": "node/4334411267",
        "addr:street": "Avenida Rosa Luz",
        "amenity": "clinic",
        "name": "Biomer Análisis Cliínicos",
        "source": "Reconocimiento cartogáfico de campo por KG 2016."
      },
      "geometry": {
        "type": "Point",
        "coordinates": [
          -77.072631,
          -11.8825016
        ]
      },
      "id": "node/4334411267"
    },
    {
      "type": "Feature",
      "properties": {
        "@id": "node/4334671340",
        "addr:street": "Jirón Miguel Grau Oeste",
        "amenity": "clinic",
        "name": "Policlinico Criste Vive",
        "source": "Reconocimiento cartográfico por KG 2016."
      },
      "geometry": {
        "type": "Point",
        "coordinates": [
          -77.0171726,
          -11.8758459
        ]
      },
      "id": "node/4334671340"
    },
    {
      "type": "Feature",
      "properties": {
        "@id": "node/4335637487",
        "addr:housenumber": "733",
        "addr:street": "Avenida Nicolás de Pierola",
        "amenity": "clinic",
        "internet_access": "wlan",
        "name": "Clínica Internacional",
        "source": "Reconocimiento cartográfico por KG 2016.",
        "toilets:wheelchair": "no",
        "wheelchair": "yes"
      },
      "geometry": {
        "type": "Point",
        "coordinates": [
          -77.0368369,
          -12.0504193
        ]
      },
      "id": "node/4335637487"
    },
    {
      "type": "Feature",
      "properties": {
        "@id": "node/4336010369",
        "addr:street": "Avenida Guillermo de la Fuente",
        "amenity": "clinic",
        "name": "Clinica",
        "source": "Reconocimiento cartográfico por KG 2016."
      },
      "geometry": {
        "type": "Point",
        "coordinates": [
          -77.0612545,
          -11.9417082
        ]
      },
      "id": "node/4336010369"
    },
    {
      "type": "Feature",
      "properties": {
        "@id": "node/4336154428",
        "amenity": "clinic",
        "name": "Diagnomedic",
        "source": "Reconocimiento cartográfico por KG 2016"
      },
      "geometry": {
        "type": "Point",
        "coordinates": [
          -77.0426954,
          -12.0546666
        ]
      },
      "id": "node/4336154428"
    },
    {
      "type": "Feature",
      "properties": {
        "@id": "node/4336231237",
        "amenity": "clinic",
        "name": "Consultorio Medico",
        "source": "Reconocimiento cartográfico por KG 2016"
      },
      "geometry": {
        "type": "Point",
        "coordinates": [
          -77.049143,
          -12.0551904
        ]
      },
      "id": "node/4336231237"
    },
    {
      "type": "Feature",
      "properties": {
        "@id": "node/4336231309",
        "amenity": "clinic",
        "name": "Policlinco",
        "source": "Reconocimiento cartográfico por KG 2016"
      },
      "geometry": {
        "type": "Point",
        "coordinates": [
          -77.0520826,
          -12.0554276
        ]
      },
      "id": "node/4336231309"
    },
    {
      "type": "Feature",
      "properties": {
        "@id": "node/4337327192",
        "addr:street": "Avenida Universitaria",
        "amenity": "clinic",
        "name": "Clinica Trujillo",
        "source": "Reconocimiento cartográfico por KG 2016."
      },
      "geometry": {
        "type": "Point",
        "coordinates": [
          -77.0386367,
          -11.8993168
        ]
      },
      "id": "node/4337327192"
    },
    {
      "type": "Feature",
      "properties": {
        "@id": "node/4337456770",
        "amenity": "clinic",
        "name": "General de Salud",
        "source": "Reconocimiento cartográfico por KG 2016"
      },
      "geometry": {
        "type": "Point",
        "coordinates": [
          -77.0782178,
          -12.052212
        ]
      },
      "id": "node/4337456770"
    },
    {
      "type": "Feature",
      "properties": {
        "@id": "node/4337683923",
        "addr:street": "Avenida Manuel Prado Este",
        "amenity": "clinic",
        "name": "Laboratorio Clinico",
        "source": "Reconocimiento cartogáfico de campo por KG 2016."
      },
      "geometry": {
        "type": "Point",
        "coordinates": [
          -77.0094113,
          -11.8768657
        ]
      },
      "id": "node/4337683923"
    },
    {
      "type": "Feature",
      "properties": {
        "@id": "node/4337783233",
        "addr:street": "Avenida Brasil",
        "amenity": "clinic",
        "healthcare": "clinic",
        "name": "Brevetes",
        "source": "Reconocimiento cartográfico de campo 2016 por KG"
      },
      "geometry": {
        "type": "Point",
        "coordinates": [
          -77.045009,
          -12.0640184
        ]
      },
      "id": "node/4337783233"
    },
    {
      "type": "Feature",
      "properties": {
        "@id": "node/4341381810",
        "addr:housenumber": "1497",
        "addr:street": "Avenida La Paz",
        "amenity": "clinic",
        "name": "Centro Podologico Pie Feliz",
        "opening_hours": "Mo-Sa 09:00-19:00",
        "phone": "+51 1 5780159",
        "source": "Reconocimiento cartográfico por KG 2016"
      },
      "geometry": {
        "type": "Point",
        "coordinates": [
          -77.0964206,
          -12.0842417
        ]
      },
      "id": "node/4341381810"
    },
    {
      "type": "Feature",
      "properties": {
        "@id": "node/4341483214",
        "addr:street": "Avenida Brasil",
        "amenity": "clinic",
        "name": "Clinica San Bernardo",
        "source": "Reconocimiento cartográfico de campo 2016 por KG"
      },
      "geometry": {
        "type": "Point",
        "coordinates": [
          -77.0624209,
          -12.0851263
        ]
      },
      "id": "node/4341483214"
    },
    {
      "type": "Feature",
      "properties": {
        "@id": "node/4341739222",
        "addr:street": "Avenida Revolución",
        "amenity": "clinic",
        "name": "Dr. Luis Quito",
        "source": "Reconocimiento cartogáfico de campo por KG 2016."
      },
      "geometry": {
        "type": "Point",
        "coordinates": [
          -77.0241761,
          -11.9130139
        ]
      },
      "id": "node/4341739222"
    },
    {
      "type": "Feature",
      "properties": {
        "@id": "node/4341854629",
        "addr:street": "Jirón Miguel Grau Oeste",
        "amenity": "clinic",
        "name": "Policliníco",
        "source": "Reconocimiento cartogáfico de campo por KG 2016."
      },
      "geometry": {
        "type": "Point",
        "coordinates": [
          -77.021743,
          -11.8806397
        ]
      },
      "id": "node/4341854629"
    },
    {
      "type": "Feature",
      "properties": {
        "@id": "node/4343120124",
        "amenity": "clinic",
        "name": "Policlinico Santa María Magdalena",
        "source": "Reconocimiento cartográfico por KG 2016"
      },
      "geometry": {
        "type": "Point",
        "coordinates": [
          -77.0742757,
          -12.0920779
        ]
      },
      "id": "node/4343120124"
    },
    {
      "type": "Feature",
      "properties": {
        "@id": "node/4343194860",
        "amenity": "clinic",
        "name": "Arcangel Consultorio Medico",
        "source": "Reconocimiento cartográfico por KG 2016"
      },
      "geometry": {
        "type": "Point",
        "coordinates": [
          -77.0737138,
          -12.0905131
        ]
      },
      "id": "node/4343194860"
    },
    {
      "type": "Feature",
      "properties": {
        "@id": "node/4343682179",
        "amenity": "clinic",
        "name": "North Salud",
        "source": "Reconocimiento cartogáfico de campo por KG 2016."
      },
      "geometry": {
        "type": "Point",
        "coordinates": [
          -77.042438,
          -11.9261883
        ]
      },
      "id": "node/4343682179"
    },
    {
      "type": "Feature",
      "properties": {
        "@id": "node/4343682292",
        "amenity": "clinic",
        "name": "Policlinico Dessa",
        "source": "Reconocimiento cartogáfico de campo por KG 2016."
      },
      "geometry": {
        "type": "Point",
        "coordinates": [
          -77.0425723,
          -11.9271855
        ]
      },
      "id": "node/4343682292"
    },
    {
      "type": "Feature",
      "properties": {
        "@id": "node/4344633308",
        "addr:street": "Avenida Alfredo Benavides",
        "amenity": "clinic",
        "name": "Clínica de Reumatismo",
        "source": "Reconocimiento cartográfico por KG 2016"
      },
      "geometry": {
        "type": "Point",
        "coordinates": [
          -77.0300016,
          -12.1245663
        ]
      },
      "id": "node/4344633308"
    },
    {
      "type": "Feature",
      "properties": {
        "@id": "node/4344911113",
        "amenity": "clinic",
        "name": "Policlinico Virgen del Rosario",
        "source": "Reconocimiento cartogáfico de campo por KG 2016."
      },
      "geometry": {
        "type": "Point",
        "coordinates": [
          -77.0518199,
          -11.9551517
        ]
      },
      "id": "node/4344911113"
    },
    {
      "type": "Feature",
      "properties": {
        "@id": "node/4345045203",
        "amenity": "clinic",
        "healthcare": "clinic",
        "name": "Terapia Física y Rehabilitación",
        "source": "Reconocimiento cartográfico de campo 2016 por KG"
      },
      "geometry": {
        "type": "Point",
        "coordinates": [
          -77.0195902,
          -12.145857
        ]
      },
      "id": "node/4345045203"
    },
    {
      "type": "Feature",
      "properties": {
        "@id": "node/4346127120",
        "addr:city": "Surquillo",
        "addr:housenumber": "2643",
        "addr:postcode": "15038",
        "addr:street": "Avenida de Tomás Marsano",
        "amenity": "clinic",
        "name": "Odalab",
        "opening_hours": "07:00-19:00",
        "phone": "+51 1 2718444",
        "source": "Reconocimiento cartográfico por KG 2016"
      },
      "geometry": {
        "type": "Point",
        "coordinates": [
          -77.0030358,
          -12.1256729
        ]
      },
      "id": "node/4346127120"
    },
    {
      "type": "Feature",
      "properties": {
        "@id": "node/4346228894",
        "amenity": "clinic",
        "name": "shubell"
      },
      "geometry": {
        "type": "Point",
        "coordinates": [
          -76.973391,
          -12.1587945
        ]
      },
      "id": "node/4346228894"
    },
    {
      "type": "Feature",
      "properties": {
        "@id": "node/4346486761",
        "addr:street": "Avenida Antonio de Sucre",
        "amenity": "clinic",
        "name": "Fertility & DNA"
      },
      "geometry": {
        "type": "Point",
        "coordinates": [
          -77.0687132,
          -12.087349
        ]
      },
      "id": "node/4346486761"
    },
    {
      "type": "Feature",
      "properties": {
        "@id": "node/4346610901",
        "addr:street": "Avenida Tupac Amaru",
        "amenity": "clinic",
        "name": "Pediatria",
        "source": "Reconocimiento cartogáfico de campo por KG 2016."
      },
      "geometry": {
        "type": "Point",
        "coordinates": [
          -77.0563291,
          -11.9663577
        ]
      },
      "id": "node/4346610901"
    },
    {
      "type": "Feature",
      "properties": {
        "@id": "node/4347902805",
        "addr:city": "Surquillo",
        "amenity": "clinic",
        "name": "Ortopedica",
        "source": "Actualizaciones en Peru. Reconocimiento cartográfico por KG 2016"
      },
      "geometry": {
        "type": "Point",
        "coordinates": [
          -77.0180729,
          -12.1200016
        ]
      },
      "id": "node/4347902805"
    },
    {
      "type": "Feature",
      "properties": {
        "@id": "node/4347902810",
        "amenity": "clinic",
        "name": "Dent & Medical Esthetic",
        "source": "Actualizaciones en Peru. Reconocimiento cartográfico por KG 2016"
      },
      "geometry": {
        "type": "Point",
        "coordinates": [
          -77.0180678,
          -12.1203688
        ]
      },
      "id": "node/4347902810"
    },
    {
      "type": "Feature",
      "properties": {
        "@id": "node/4351252450",
        "addr:street": "Avenida Revolución",
        "amenity": "clinic",
        "name": "Eco Medic",
        "source": "Kaart Ground Survey 2017"
      },
      "geometry": {
        "type": "Point",
        "coordinates": [
          -76.9377332,
          -12.2119098
        ]
      },
      "id": "node/4351252450"
    },
    {
      "type": "Feature",
      "properties": {
        "@id": "node/4351352532",
        "amenity": "clinic",
        "name": "Salud Mujer",
        "source": "Reconocimiento cartográfico 2017 por Kaart."
      },
      "geometry": {
        "type": "Point",
        "coordinates": [
          -76.9362305,
          -12.2139521
        ]
      },
      "id": "node/4351352532"
    },
    {
      "type": "Feature",
      "properties": {
        "@id": "node/4351412411",
        "amenity": "clinic",
        "name": "Dental San José",
        "source": "Reconocimiento cartográfico 2017 por Kaart."
      },
      "geometry": {
        "type": "Point",
        "coordinates": [
          -76.9384785,
          -12.2101814
        ]
      },
      "id": "node/4351412411"
    },
    {
      "type": "Feature",
      "properties": {
        "@id": "node/4351683613",
        "amenity": "clinic",
        "healthcare:speciality": "orthopaedics",
        "name": "Ortopedia Bryan"
      },
      "geometry": {
        "type": "Point",
        "coordinates": [
          -77.0288955,
          -12.0650634
        ]
      },
      "id": "node/4351683613"
    },
    {
      "type": "Feature",
      "properties": {
        "@id": "node/4351845057",
        "addr:street": "Auxiliar Pachacutec",
        "amenity": "clinic",
        "name": "Policlinico Dr. Matos",
        "source": "Reconocimiento cartográfico por KG 2016"
      },
      "geometry": {
        "type": "Point",
        "coordinates": [
          -76.9455599,
          -12.1762444
        ]
      },
      "id": "node/4351845057"
    },
    {
      "type": "Feature",
      "properties": {
        "@id": "node/4353260260",
        "amenity": "clinic",
        "name": "Centro Medico Moderno"
      },
      "geometry": {
        "type": "Point",
        "coordinates": [
          -77.0265089,
          -12.0567988
        ]
      },
      "id": "node/4353260260"
    },
    {
      "type": "Feature",
      "properties": {
        "@id": "node/4354579949",
        "amenity": "clinic",
        "name": "Medicos Especialistas",
        "source": "Reconocimiento cartográfico de campo 2016 por KG"
      },
      "geometry": {
        "type": "Point",
        "coordinates": [
          -77.008981,
          -12.0729262
        ]
      },
      "id": "node/4354579949"
    },
    {
      "type": "Feature",
      "properties": {
        "@id": "node/4355933308",
        "addr:city": "Lima",
        "addr:street": "Avenida Almirante Miguel Grau",
        "amenity": "clinic",
        "healthcare": "clinic",
        "name": "Dr. Luis Quito",
        "source": "Reconocimiento cartográfico de campo 2016 por KG."
      },
      "geometry": {
        "type": "Point",
        "coordinates": [
          -77.0239559,
          -12.0585548
        ]
      },
      "id": "node/4355933308"
    },
    {
      "type": "Feature",
      "properties": {
        "@id": "node/4356231837",
        "addr:city": "San Luis",
        "addr:housenumber": "610",
        "addr:street": "Avenida San Luis",
        "amenity": "clinic",
        "name": "Policlinico",
        "source": "Reconocimiento cartográfico de campo 2016 por KG"
      },
      "geometry": {
        "type": "Point",
        "coordinates": [
          -77.0018301,
          -12.0742464
        ]
      },
      "id": "node/4356231837"
    },
    {
      "type": "Feature",
      "properties": {
        "@id": "node/4356444936",
        "addr:street": "Avenida Ramón Vargas Machuca",
        "amenity": "clinic",
        "name": "Cristo Medic",
        "source": "Reconocimiento cartográfico por KG 2016"
      },
      "geometry": {
        "type": "Point",
        "coordinates": [
          -76.9703885,
          -12.1648435
        ]
      },
      "id": "node/4356444936"
    },
    {
      "type": "Feature",
      "properties": {
        "@id": "node/4356553404",
        "addr:street": "Avenida Túpac Amaru",
        "amenity": "clinic",
        "name": "Policlínico Familiar Juan Pablo II",
        "source": "Reconocimiento cartográfico 2017 por Kaart."
      },
      "geometry": {
        "type": "Point",
        "coordinates": [
          -76.9827857,
          -12.1946201
        ]
      },
      "id": "node/4356553404"
    },
    {
      "type": "Feature",
      "properties": {
        "@id": "node/4356661524",
        "addr:street": "Avenida Santa Rosa de Lima",
        "amenity": "clinic",
        "healthcare": "clinic",
        "name": "Clinica Abregu",
        "source": "Reconocimiento cartográfico por KG 2016"
      },
      "geometry": {
        "type": "Point",
        "coordinates": [
          -76.9997179,
          -12.0015079
        ]
      },
      "id": "node/4356661524"
    },
    {
      "type": "Feature",
      "properties": {
        "@id": "node/4357764415",
        "amenity": "clinic",
        "name": "Centro Clinico Gamarra",
        "source": "Reconocimiento cartográfico de campo 2016 por KG"
      },
      "geometry": {
        "type": "Point",
        "coordinates": [
          -77.0190166,
          -12.0737143
        ]
      },
      "id": "node/4357764415"
    },
    {
      "type": "Feature",
      "properties": {
        "@id": "node/4357932961",
        "amenity": "clinic",
        "name": "Clinica Dental ROL",
        "source": "Reconocimiento cartográfico de campo 2016 por KG"
      },
      "geometry": {
        "type": "Point",
        "coordinates": [
          -76.9901966,
          -12.0787613
        ]
      },
      "id": "node/4357932961"
    },
    {
      "type": "Feature",
      "properties": {
        "@id": "node/4358043945",
        "addr:street": "Avenida Angélica Gamarra",
        "amenity": "clinic",
        "name": "Policlinico Mabant",
        "source": "Reconocimiento cartográfico por KG 2016"
      },
      "geometry": {
        "type": "Point",
        "coordinates": [
          -77.0787537,
          -12.006692
        ]
      },
      "id": "node/4358043945"
    },
    {
      "type": "Feature",
      "properties": {
        "@id": "node/4361700388",
        "amenity": "clinic",
        "name": "Orientación Media Gratuita",
        "source": "Reconocimiento cartográfico de campo 2016 por KG."
      },
      "geometry": {
        "type": "Point",
        "coordinates": [
          -77.0233763,
          -12.0584929
        ]
      },
      "id": "node/4361700388"
    },
    {
      "type": "Feature",
      "properties": {
        "@id": "node/4361702693",
        "addr:housenumber": "956",
        "addr:street": "Avenida Almirante Miguel Grau",
        "amenity": "clinic",
        "name": "Servicios Medicos Dr. Serván",
        "source": "Reconocimiento cartográfico por KG 2016."
      },
      "geometry": {
        "type": "Point",
        "coordinates": [
          -77.0206537,
          -12.0581331
        ]
      },
      "id": "node/4361702693"
    },
    {
      "type": "Feature",
      "properties": {
        "@id": "node/4361735090",
        "amenity": "clinic",
        "healthcare": "clinic",
        "name": "Medlab",
        "source": "Reconocimiento cartográfico de campo 2016 por KG"
      },
      "geometry": {
        "type": "Point",
        "coordinates": [
          -76.9906352,
          -12.1113969
        ]
      },
      "id": "node/4361735090"
    },
    {
      "type": "Feature",
      "properties": {
        "@id": "node/4361871030",
        "addr:city": "Santiago de Surco",
        "addr:street": "Calle Zeus",
        "amenity": "clinic",
        "name": "Centro de Cuidados Intehrales Wawitas",
        "source": "Reconocimiento cartográfico 2017 por Kaart."
      },
      "geometry": {
        "type": "Point",
        "coordinates": [
          -76.9950086,
          -12.1630465
        ]
      },
      "id": "node/4361871030"
    },
    {
      "type": "Feature",
      "properties": {
        "@id": "node/4362002383",
        "amenity": "clinic",
        "name": "Centro Medico Especializado",
        "source": "Reconocimiento cartográfico por KG 2016."
      },
      "geometry": {
        "type": "Point",
        "coordinates": [
          -76.9751883,
          -12.0532259
        ]
      },
      "id": "node/4362002383"
    },
    {
      "type": "Feature",
      "properties": {
        "@id": "node/4362227016",
        "addr:city": "Lima",
        "addr:street": "Jirón Abtao",
        "amenity": "clinic",
        "name": "Fertilidad",
        "source": "Reconocimiento cartográfico de campo 2016 por KG."
      },
      "geometry": {
        "type": "Point",
        "coordinates": [
          -77.0232666,
          -12.0587101
        ]
      },
      "id": "node/4362227016"
    },
    {
      "type": "Feature",
      "properties": {
        "@id": "node/4363081142",
        "addr:street": "Avenida de la Guardia Civil",
        "amenity": "clinic",
        "name": "Consultorio Médico de la Familia",
        "source": "Reconocimiento cartográfico 2017 por Kaart."
      },
      "geometry": {
        "type": "Point",
        "coordinates": [
          -77.0067185,
          -12.1849352
        ]
      },
      "id": "node/4363081142"
    },
    {
      "type": "Feature",
      "properties": {
        "@id": "node/4363353888",
        "addr:street": "Avenida de la Guardia Civil",
        "amenity": "clinic",
        "name": "Servisalud Santa María",
        "source": "Reconocimiento cartográfico 2017 por Kaart."
      },
      "geometry": {
        "type": "Point",
        "coordinates": [
          -76.9991142,
          -12.182257
        ]
      },
      "id": "node/4363353888"
    },
    {
      "type": "Feature",
      "properties": {
        "@id": "node/4363494601",
        "addr:street": "Avenida Las Palmeras",
        "amenity": "clinic",
        "name": "Ecografias",
        "source": "Reconocimiento cartográfico por KG 2016"
      },
      "geometry": {
        "type": "Point",
        "coordinates": [
          -77.0716316,
          -11.9897675
        ]
      },
      "id": "node/4363494601"
    },
    {
      "type": "Feature",
      "properties": {
        "@id": "node/4363595605",
        "amenity": "clinic",
        "name": "Phymed"
      },
      "geometry": {
        "type": "Point",
        "coordinates": [
          -76.9879208,
          -12.1264805
        ]
      },
      "id": "node/4363595605"
    },
    {
      "type": "Feature",
      "properties": {
        "@id": "node/4363959279",
        "addr:street": "Avenida Caminos del Inca",
        "amenity": "clinic",
        "healthcare": "clinic",
        "name": "Salud Ocupacional",
        "source": "Reconocimiento cartográfico 2017 por Kaart."
      },
      "geometry": {
        "type": "Point",
        "coordinates": [
          -76.9850981,
          -12.1439708
        ]
      },
      "id": "node/4363959279"
    },
    {
      "type": "Feature",
      "properties": {
        "@id": "node/4365046924",
        "addr:street": "Avenida Las Palmeras",
        "amenity": "clinic",
        "name": "Sedi Medic",
        "source": "Reconocimiento cartográfico por KG 2016"
      },
      "geometry": {
        "type": "Point",
        "coordinates": [
          -77.0720044,
          -11.9906987
        ]
      },
      "id": "node/4365046924"
    },
    {
      "type": "Feature",
      "properties": {
        "@id": "node/4365056252",
        "amenity": "clinic",
        "name": "Policlinico Medical Plus Center",
        "source": "Reconocimiento cartográfico por KG 2016."
      },
      "geometry": {
        "type": "Point",
        "coordinates": [
          -77.072904,
          -11.9459924
        ]
      },
      "id": "node/4365056252"
    },
    {
      "type": "Feature",
      "properties": {
        "@id": "node/4365096386",
        "addr:street": "Avenida Carlos Alberto Izaguirre",
        "amenity": "clinic",
        "name": "Clinica San Bartolome",
        "source": "Reconocimiento cartográfico por KG 2016"
      },
      "geometry": {
        "type": "Point",
        "coordinates": [
          -77.0754564,
          -11.9914244
        ]
      },
      "id": "node/4365096386"
    },
    {
      "type": "Feature",
      "properties": {
        "@id": "node/4365228314",
        "amenity": "clinic",
        "name": "Clínica Dental Villarán",
        "source": "Reconocimiento cartográfico de campo 2016 por KG"
      },
      "geometry": {
        "type": "Point",
        "coordinates": [
          -77.0010466,
          -12.120566
        ]
      },
      "id": "node/4365228314"
    },
    {
      "type": "Feature",
      "properties": {
        "@id": "node/4365511058",
        "amenity": "clinic",
        "name": "Centro Medico Parroquil San Conrado",
        "source": "Reconocimiento cartográfico por KG 2016."
      },
      "geometry": {
        "type": "Point",
        "coordinates": [
          -77.0802228,
          -11.9331054
        ]
      },
      "id": "node/4365511058"
    },
    {
      "type": "Feature",
      "properties": {
        "@id": "node/4365524802",
        "amenity": "clinic",
        "health_facility:type": "laboratory",
        "name": "Chequeo Médico",
        "source": "Reconocimiento cartográfico por KG 2016."
      },
      "geometry": {
        "type": "Point",
        "coordinates": [
          -77.0744941,
          -11.9341264
        ]
      },
      "id": "node/4365524802"
    },
    {
      "type": "Feature",
      "properties": {
        "@id": "node/4365524822",
        "amenity": "clinic",
        "name": "La Posa",
        "source": "Reconocimiento cartográfico por KG 2016."
      },
      "geometry": {
        "type": "Point",
        "coordinates": [
          -77.0749346,
          -11.9334971
        ]
      },
      "id": "node/4365524822"
    },
    {
      "type": "Feature",
      "properties": {
        "@id": "node/4366793505",
        "addr:street": "Avenida Marañon",
        "amenity": "clinic",
        "name": "Consultorio Medico Roal"
      },
      "geometry": {
        "type": "Point",
        "coordinates": [
          -77.0781749,
          -11.9711056
        ]
      },
      "id": "node/4366793505"
    },
    {
      "type": "Feature",
      "properties": {
        "@id": "node/4366872900",
        "addr:street": "Los Quechuas",
        "amenity": "clinic",
        "name": "Mi Salud",
        "source": "Reconocimiento cartografico de campo 2016 por KG"
      },
      "geometry": {
        "type": "Point",
        "coordinates": [
          -76.9801284,
          -12.0750554
        ]
      },
      "id": "node/4366872900"
    },
    {
      "type": "Feature",
      "properties": {
        "@id": "node/4367125589",
        "addr:city": "San Borja",
        "amenity": "clinic",
        "name": "Instituto de Neurocirugia"
      },
      "geometry": {
        "type": "Point",
        "coordinates": [
          -77.0081462,
          -12.0924635
        ]
      },
      "id": "node/4367125589"
    },
    {
      "type": "Feature",
      "properties": {
        "@id": "node/4368682277",
        "addr:street": "Avenida Marañon",
        "amenity": "clinic",
        "name": "Policlinico"
      },
      "geometry": {
        "type": "Point",
        "coordinates": [
          -77.0776345,
          -11.9709048
        ]
      },
      "id": "node/4368682277"
    },
    {
      "type": "Feature",
      "properties": {
        "@id": "node/4374713344",
        "amenity": "clinic",
        "name": "Clinica Fernandez",
        "source": "Reconocimiento cartográfico 2017 por Kaart."
      },
      "geometry": {
        "type": "Point",
        "coordinates": [
          -76.9239593,
          -12.0285111
        ]
      },
      "id": "node/4374713344"
    },
    {
      "type": "Feature",
      "properties": {
        "@id": "node/4374715728",
        "amenity": "clinic",
        "healthcare:speciality": "ophthalmology",
        "name": "Eyes Center",
        "source": "Reconocimiento cartográfico 2017 por Kaart."
      },
      "geometry": {
        "type": "Point",
        "coordinates": [
          -76.9255086,
          -12.0303201
        ]
      },
      "id": "node/4374715728"
    },
    {
      "type": "Feature",
      "properties": {
        "@id": "node/4374900313",
        "amenity": "clinic",
        "name": "Consorcio Médico Silvia",
        "source": "Reconocimiento cartográfico 2017 por Kaart."
      },
      "geometry": {
        "type": "Point",
        "coordinates": [
          -76.9228881,
          -12.0281006
        ]
      },
      "id": "node/4374900313"
    },
    {
      "type": "Feature",
      "properties": {
        "@id": "node/4374900334",
        "amenity": "clinic",
        "name": "Dr. Luis Quito",
        "source": "Reconocimiento cartográfico 2017 por Kaart."
      },
      "geometry": {
        "type": "Point",
        "coordinates": [
          -76.9236471,
          -12.0288825
        ]
      },
      "id": "node/4374900334"
    },
    {
      "type": "Feature",
      "properties": {
        "@id": "node/4375757655",
        "amenity": "clinic",
        "name": "Terapia Fisica",
        "source": "Reconocimiento cartográfico de campo 2016 por KG"
      },
      "geometry": {
        "type": "Point",
        "coordinates": [
          -77.0838374,
          -11.9934979
        ]
      },
      "id": "node/4375757655"
    },
    {
      "type": "Feature",
      "properties": {
        "@id": "node/4378106429",
        "addr:city": "chosica",
        "addr:street": "Avenida Lima Norte",
        "amenity": "clinic",
        "name": "House Bienestor y Salud",
        "source": "Reconocimiento cartografico de campo 2016 por KG"
      },
      "geometry": {
        "type": "Point",
        "coordinates": [
          -76.6907992,
          -11.9302528
        ]
      },
      "id": "node/4378106429"
    },
    {
      "type": "Feature",
      "properties": {
        "@id": "node/4379635696",
        "addr:city": "Independencia",
        "addr:housenumber": "A13",
        "addr:street": "Boulevard",
        "amenity": "clinic",
        "healthcare": "clinic",
        "healthcare:speciality": "general",
        "name": "IntegraMédica",
        "operator": "IntegraMédica Perú",
        "phone": "+51 1 634 1000",
        "website": "https://www.integramedica.pe/"
      },
      "geometry": {
        "type": "Point",
        "coordinates": [
          -77.0600085,
          -11.9930904
        ]
      },
      "id": "node/4379635696"
    },
    {
      "type": "Feature",
      "properties": {
        "@id": "node/4391173789",
        "addr:housenumber": "1768",
        "addr:street": "Jose Carlos Mariategui",
        "amenity": "clinic",
        "name": "Master Salud",
        "name:es": "Master Salud"
      },
      "geometry": {
        "type": "Point",
        "coordinates": [
          -76.9046984,
          -12.0252077
        ]
      },
      "id": "node/4391173789"
    },
    {
      "type": "Feature",
      "properties": {
        "@id": "node/4405165734",
        "addr:city": "Barrios Altos",
        "addr:street": "Jirón Ayacucho",
        "amenity": "clinic",
        "name": "Polisalud"
      },
      "geometry": {
        "type": "Point",
        "coordinates": [
          -77.0285051,
          -12.054004
        ]
      },
      "id": "node/4405165734"
    },
    {
      "type": "Feature",
      "properties": {
        "@id": "node/4413751493",
        "addr:block": "A",
        "addr:district": "Chorrillos",
        "addr:plot": "10",
        "addr:street": "Avenida Defensores del Morro",
        "amenity": "clinic",
        "name": "Kirosalud Perú",
        "name:es": "Kirosalud Perú"
      },
      "geometry": {
        "type": "Point",
        "coordinates": [
          -77.000534,
          -12.1957931
        ]
      },
      "id": "node/4413751493"
    },
    {
      "type": "Feature",
      "properties": {
        "@id": "node/4421391689",
        "amenity": "clinic",
        "name": "Bienestar y Vida",
        "name:es": "Bienestar y Vida"
      },
      "geometry": {
        "type": "Point",
        "coordinates": [
          -77.0746057,
          -11.8822969
        ]
      },
      "id": "node/4421391689"
    },
    {
      "type": "Feature",
      "properties": {
        "@id": "node/4433073625",
        "addr:city": "San Juan de Miraflores",
        "addr:housenumber": "997",
        "addr:street": "Avenida Miguel Iglesias",
        "amenity": "clinic",
        "contact:facebook": "https://es-la.facebook.com/RenovaSalud/",
        "contact:instagram": "https://www.instagram.com/renova_salud/",
        "healthcare": "clinic",
        "healthcare:speciality": "dermatology",
        "level": "6",
        "name": "Renova Salud",
        "opening_hours": "Mo-Fr 08:00-13:00, 14:30-19:00; Sa 08:00-14:00",
        "phone": "+511 3438264",
        "website": "http://www.renovasalud.com/"
      },
      "geometry": {
        "type": "Point",
        "coordinates": [
          -76.9589422,
          -12.1597661
        ]
      },
      "id": "node/4433073625"
    },
    {
      "type": "Feature",
      "properties": {
        "@id": "node/4437998590",
        "amenity": "clinic",
        "name": "Policlínico Lima",
        "wheelchair": "no"
      },
      "geometry": {
        "type": "Point",
        "coordinates": [
          -77.0331759,
          -12.0460763
        ]
      },
      "id": "node/4437998590"
    },
    {
      "type": "Feature",
      "properties": {
        "@id": "node/4447924191",
        "addr:housenumber": "800",
        "addr:street": "Calle Trujillo Sur",
        "amenity": "clinic",
        "name": "Policlinico Chosica - Essalud",
        "name:es": "Seguro social",
        "operator": "Essalud",
        "phone": "+51 1 3602559",
        "ref:category": "I-3"
      },
      "geometry": {
        "type": "Point",
        "coordinates": [
          -76.699736,
          -11.9390308
        ]
      },
      "id": "node/4447924191"
    },
    {
      "type": "Feature",
      "properties": {
        "@id": "node/4552742992",
        "addr:city": "Jesús María",
        "addr:housenumber": "161",
        "addr:postcode": "15011",
        "addr:street": "Avenida Jose Maria Plaza",
        "amenity": "hospital",
        "name": "UBAB Jesús María",
        "name:es": "UBAB Jesús María",
        "operator": "Essalud"
      },
      "geometry": {
        "type": "Point",
        "coordinates": [
          -77.0498354,
          -12.071483
        ]
      },
      "id": "node/4552742992"
    },
    {
      "type": "Feature",
      "properties": {
        "@id": "node/4586179883",
        "addr:city": "Cercado de Lima",
        "addr:housenumber": "1029",
        "addr:street": "Avenida Alfonso Ugarte",
        "amenity": "clinic",
        "contact:facebook": "https://www.facebook.com/clinicasenordelosmilagros/",
        "name": "Clínica de cirugía de día Señor de los Milagros",
        "phone": "+511 4313434"
      },
      "geometry": {
        "type": "Point",
        "coordinates": [
          -77.041904,
          -12.0527204
        ]
      },
      "id": "node/4586179883"
    },
    {
      "type": "Feature",
      "properties": {
        "@id": "node/4654354690",
        "addr:housenumber": "1133",
        "addr:street": "Avenida Jorge Basadre",
        "amenity": "clinic",
        "name": "Laboratorios Clinicos Integrados SA"
      },
      "geometry": {
        "type": "Point",
        "coordinates": [
          -77.0429328,
          -12.095712
        ]
      },
      "id": "node/4654354690"
    },
    {
      "type": "Feature",
      "properties": {
        "@id": "node/4674945690",
        "addr:city": "Santiago de Surco",
        "addr:housenumber": "906",
        "addr:street": "Avenida Manuel Olguin",
        "amenity": "clinic",
        "healthcare": "clinic",
        "healthcare:speciality": "occupational",
        "name": "Clínica NATCLAR",
        "opening_hours": "Mo-Sa 07:00-16:00",
        "phone": "+511 2134141",
        "website": "https://www.natclar.com.pe/"
      },
      "geometry": {
        "type": "Point",
        "coordinates": [
          -76.9733218,
          -12.0997189
        ]
      },
      "id": "node/4674945690"
    },
    {
      "type": "Feature",
      "properties": {
        "@id": "node/4683854390",
        "amenity": "clinic",
        "name": "Policlinico",
        "name:es": "Policlinico"
      },
      "geometry": {
        "type": "Point",
        "coordinates": [
          -77.1039548,
          -11.9719323
        ]
      },
      "id": "node/4683854390"
    },
    {
      "type": "Feature",
      "properties": {
        "@id": "node/4699602789",
        "addr:housenumber": "539",
        "addr:street": "Avenida Universitaria",
        "amenity": "clinic",
        "email": "amadeosan@yahoo.com",
        "healthcare": "clinic",
        "internet_access": "wlan",
        "name": "Fem Salud S.A.C",
        "name:es": "Fem Salud S.A.C",
        "opening_hours": "Mo, We, Fr-Sa 18:00-22:00",
        "phone": "+51 1 5685069"
      },
      "geometry": {
        "type": "Point",
        "coordinates": [
          -77.0751923,
          -12.0216021
        ]
      },
      "id": "node/4699602789"
    },
    {
      "type": "Feature",
      "properties": {
        "@id": "node/4738326463",
        "amenity": "clinic",
        "name": "Policlínico Parroquial San Luis Maria De Montfort"
      },
      "geometry": {
        "type": "Point",
        "coordinates": [
          -76.825797,
          -12.0136001
        ]
      },
      "id": "node/4738326463"
    },
    {
      "type": "Feature",
      "properties": {
        "@id": "node/4757144542",
        "addr:housenumber": "4994",
        "addr:street": "Avenida Alfredo Benavides",
        "amenity": "clinic",
        "name": "Salus Laboris",
        "name:es": "Salus Laboris"
      },
      "geometry": {
        "type": "Point",
        "coordinates": [
          -76.9852844,
          -12.1286241
        ]
      },
      "id": "node/4757144542"
    },
    {
      "type": "Feature",
      "properties": {
        "@id": "node/4799850221",
        "addr:city": "Santiago de Surco",
        "addr:housenumber": "284-288",
        "addr:street": "Calle Talara",
        "amenity": "clinic",
        "name": "Clínica Vista Alegre",
        "name:es": "Clínica Vista Alegre",
        "phone": "+51 1 2746068;+51 1 2741118;+51 1 2746084",
        "website": "http://www.clinicavistaalegre.com.pe"
      },
      "geometry": {
        "type": "Point",
        "coordinates": [
          -76.9879392,
          -12.1453168
        ]
      },
      "id": "node/4799850221"
    },
    {
      "type": "Feature",
      "properties": {
        "@id": "node/4808012782",
        "addr:city": "Jesús María",
        "addr:housenumber": "266",
        "addr:street": "Jirón Pablo Bermudez",
        "amenity": "clinic",
        "healthcare": "clinic",
        "name": "Clinica Pablo Bermudez",
        "phone": "+51 1 4337933;+51 1 3309817;+51 1 3303330"
      },
      "geometry": {
        "type": "Point",
        "coordinates": [
          -77.0383459,
          -12.07244
        ]
      },
      "id": "node/4808012782"
    },
    {
      "type": "Feature",
      "properties": {
        "@id": "node/4840488442",
        "addr:street": "Jirón Bolivia",
        "amenity": "hospital",
        "name": "Centro de Salud Vitis",
        "name:es": "Centro de Salud Vitis",
        "operator": "Gobierno Regional",
        "phone": "+511 8406047",
        "ref:category": "I-2",
        "ref:microred": "5",
        "ref:red": "7"
      },
      "geometry": {
        "type": "Point",
        "coordinates": [
          -75.8085443,
          -12.224581
        ]
      },
      "id": "node/4840488442"
    },
    {
      "type": "Feature",
      "properties": {
        "@id": "node/4850387121",
        "addr:city": "Santa Anita",
        "addr:housenumber": "189",
        "addr:street": "Calle San Pablo",
        "amenity": "clinic",
        "contact:facebook": "https://www.facebook.com/ClinicaMunicipalDeSantaAnita/",
        "healthcare": "clinic",
        "healthcare:speciality": "cardiology;endocrinology;gynaecology;psychiatry;urology;gastroenterology;dermatology;dentist;physiotherapy;general;emergency",
        "name": "Clínica Municipal Santa Anita",
        "opening_hours": "24/7",
        "operator": "Municipalida de Santa Anita",
        "operator:type": "public",
        "phone": "+51 1 6371438",
        "website": "https://clinica-municipal-santa-anita.negocio.site/"
      },
      "geometry": {
        "type": "Point",
        "coordinates": [
          -76.9518073,
          -12.0356155
        ]
      },
      "id": "node/4850387121"
    },
    {
      "type": "Feature",
      "properties": {
        "@id": "node/4851791224",
        "addr:street": "Jirón Bernardo Alcedo",
        "amenity": "clinic",
        "name": "Zuñiga",
        "name:es": "Puesto de Salud",
        "operator": "Gobierno Regional",
        "ref:category": "I-2",
        "ref:microred": "3",
        "ref:red": "7"
      },
      "geometry": {
        "type": "Point",
        "coordinates": [
          -76.0222058,
          -12.8602251
        ]
      },
      "id": "node/4851791224"
    },
    {
      "type": "Feature",
      "properties": {
        "@id": "node/4868532921",
        "amenity": "clinic",
        "level": "20",
        "name:en": "Dermatologist - 20th floor"
      },
      "geometry": {
        "type": "Point",
        "coordinates": [
          -77.0301643,
          -12.1194135
        ]
      },
      "id": "node/4868532921"
    },
    {
      "type": "Feature",
      "properties": {
        "@id": "node/4876669222",
        "addr:housenumber": "437, of 202",
        "addr:street": "Jirón Loma Umbrosa",
        "amenity": "clinic",
        "email": "contacto@reconectateperu.com",
        "name": "Reconectate Peru - Centro Quiropractico",
        "opening_hours": "Tu-We, Fr 10:00-14:00, 17:00-21:00; Mo, Th 17:00-21:00; Sa 10:00-13:00",
        "phone": "+51 982434777"
      },
      "geometry": {
        "type": "Point",
        "coordinates": [
          -76.9880237,
          -12.1392266
        ]
      },
      "id": "node/4876669222"
    },
    {
      "type": "Feature",
      "properties": {
        "@id": "node/4884102510",
        "addr:city": "Jesús María",
        "addr:street": "Jirón Mariscal Miller",
        "amenity": "clinic",
        "fuel:diesel": "http://www.essalud.gob.pe/inauguran-moderno-centro-de-emergencia-de-essalud-valorizado-en-mas-de-s-100-millones/",
        "healthcare": "clinic",
        "healthcare:speciality": "emergency",
        "name": "Centro de Emergencia del Hospital Nacional Edgardo Rebagliati Martins",
        "operator": "EsSalud",
        "operator:type": "public"
      },
      "geometry": {
        "type": "Point",
        "coordinates": [
          -77.0382988,
          -12.0792505
        ]
      },
      "id": "node/4884102510"
    },
    {
      "type": "Feature",
      "properties": {
        "@id": "node/4888683521",
        "addr:housenumber": "783",
        "addr:street": "Avenida Gregorio Escobedo",
        "amenity": "clinic",
        "healthcare": "clinic",
        "name": "Policlínico Peruano-Japonés",
        "name:en": "Polyclinic Peruvian-Japanese",
        "name:es": "Policlínico Peruano-Japonés",
        "opening_hours": "Mo-Su 07:30-20:30",
        "phone": "+51 1 2042100"
      },
      "geometry": {
        "type": "Point",
        "coordinates": [
          -77.0550691,
          -12.0878251
        ]
      },
      "id": "node/4888683521"
    },
    {
      "type": "Feature",
      "properties": {
        "@id": "node/4953786221",
        "amenity": "clinic",
        "name": "Clinica Sigso",
        "name:es": "Clinica Sigso"
      },
      "geometry": {
        "type": "Point",
        "coordinates": [
          -77.0434641,
          -12.0759648
        ]
      },
      "id": "node/4953786221"
    },
    {
      "type": "Feature",
      "properties": {
        "@id": "node/4957403323",
        "addr:full": "Centro Poblado Tunan",
        "amenity": "hospital",
        "name": "Puesto de Salud Tunan",
        "name:es": "Puesto de Salud Tunan",
        "operator": "Gobierno Regional",
        "phone": "+511 2360738",
        "ref:category": "I-2",
        "ref:microred": "2",
        "ref:red": "1"
      },
      "geometry": {
        "type": "Point",
        "coordinates": [
          -77.7591198,
          -10.5664266
        ]
      },
      "id": "node/4957403323"
    },
    {
      "type": "Feature",
      "properties": {
        "@id": "node/5008490492",
        "addr:city": "Chorrillos",
        "addr:street": "Avenida Santa Anita",
        "amenity": "clinic",
        "name": "Previ Medic",
        "source": "Kaart Ground Survey 2017"
      },
      "geometry": {
        "type": "Point",
        "coordinates": [
          -77.008508,
          -12.1876406
        ]
      },
      "id": "node/5008490492"
    },
    {
      "type": "Feature",
      "properties": {
        "@id": "node/5008524121",
        "addr:city": "Jesús María",
        "addr:housenumber": "783",
        "addr:street": "Avenida Gregorio Escobedo",
        "amenity": "hospital",
        "healthcare": "hospital",
        "name": "Policlínico Peruano Japonés",
        "toilets:wheelchair": "yes",
        "website": "https://www.policlinicoperuanojapones.org",
        "wheelchair": "yes",
        "wheelchair:description": "El ascensor es grande."
      },
      "geometry": {
        "type": "Point",
        "coordinates": [
          -77.0546996,
          -12.0877134
        ]
      },
      "id": "node/5008524121"
    },
    {
      "type": "Feature",
      "properties": {
        "@id": "node/5009784647",
        "addr:street": "Avenida Los Próceres",
        "amenity": "clinic",
        "name": "Policlinico SJB",
        "source": "Kaart Ground Survey 2017"
      },
      "geometry": {
        "type": "Point",
        "coordinates": [
          -76.990433,
          -12.1627865
        ]
      },
      "id": "node/5009784647"
    },
    {
      "type": "Feature",
      "properties": {
        "@id": "node/5010414066",
        "addr:street": "Avenida San Juan",
        "amenity": "clinic",
        "name": "Psicóloga",
        "source": "Reconocimiento cartográfico por KG 2017"
      },
      "geometry": {
        "type": "Point",
        "coordinates": [
          -76.9626725,
          -12.1402887
        ]
      },
      "id": "node/5010414066"
    },
    {
      "type": "Feature",
      "properties": {
        "@id": "node/5010414219",
        "addr:street": "Avenida Jose Torres Paz",
        "amenity": "clinic",
        "health_facility:type": "laboratory",
        "name": "Laboratorio San Diego",
        "source": "Reconocimiento cartográfico por KG 2017"
      },
      "geometry": {
        "type": "Point",
        "coordinates": [
          -76.972142,
          -12.153406
        ]
      },
      "id": "node/5010414219"
    },
    {
      "type": "Feature",
      "properties": {
        "@id": "node/5012130335",
        "amenity": "clinic",
        "name": "Centro Medico Municipal",
        "source": "Kaart Ground Survey 2017"
      },
      "geometry": {
        "type": "Point",
        "coordinates": [
          -76.6328829,
          -12.6577037
        ]
      },
      "id": "node/5012130335"
    },
    {
      "type": "Feature",
      "properties": {
        "@id": "node/5012404037",
        "addr:street": "Avenida Micaela Bastidas",
        "amenity": "clinic",
        "name": "Emergencia 24 Horas",
        "source": "Kaart Ground Survey 2017"
      },
      "geometry": {
        "type": "Point",
        "coordinates": [
          -76.9466071,
          -12.2076055
        ]
      },
      "id": "node/5012404037"
    },
    {
      "type": "Feature",
      "properties": {
        "@id": "node/5012404058",
        "addr:street": "Avenida Micaela Bastidas",
        "amenity": "clinic",
        "name": "Elsio Salud",
        "source": "Kaart Ground Survey 2017"
      },
      "geometry": {
        "type": "Point",
        "coordinates": [
          -76.9474019,
          -12.2062995
        ]
      },
      "id": "node/5012404058"
    },
    {
      "type": "Feature",
      "properties": {
        "@id": "node/5012747335",
        "addr:city": "Villa El Salvador",
        "addr:street": "Avenida César Vallejo",
        "amenity": "clinic",
        "name": "San Lucas",
        "source": "Kaart Ground Survey 2017"
      },
      "geometry": {
        "type": "Point",
        "coordinates": [
          -76.9355156,
          -12.2122954
        ]
      },
      "id": "node/5012747335"
    },
    {
      "type": "Feature",
      "properties": {
        "@id": "node/5014995620",
        "addr:street": "Avenida 1ro de Mayo",
        "amenity": "clinic",
        "name": "Consultario Medico Familiar",
        "source": "Kaart Ground Survey 2017"
      },
      "geometry": {
        "type": "Point",
        "coordinates": [
          -76.9670056,
          -12.197996
        ]
      },
      "id": "node/5014995620"
    },
    {
      "type": "Feature",
      "properties": {
        "@id": "node/5015245042",
        "addr:street": "Avenida Los Angeles",
        "amenity": "clinic",
        "name": "Clinica Los Angeles",
        "source": "Kaart Ground Survey 2017"
      },
      "geometry": {
        "type": "Point",
        "coordinates": [
          -76.9464291,
          -12.1981946
        ]
      },
      "id": "node/5015245042"
    },
    {
      "type": "Feature",
      "properties": {
        "@id": "node/5052248321",
        "addr:housenumber": "560",
        "addr:street": "Avenida Gregorio Escobedo",
        "amenity": "clinic",
        "healthcare": "clinic",
        "name": "Clínica MEDAVAN",
        "name:es": "Clínica MEDAVAN"
      },
      "geometry": {
        "type": "Point",
        "coordinates": [
          -77.0533557,
          -12.085326
        ]
      },
      "id": "node/5052248321"
    },
    {
      "type": "Feature",
      "properties": {
        "@id": "node/5052338204",
        "addr:street": "Jirón Primavera",
        "amenity": "clinic",
        "name": "Vida Sana",
        "source": "Kaart Ground Survey 2017"
      },
      "geometry": {
        "type": "Point",
        "coordinates": [
          -77.7599987,
          -10.7558683
        ]
      },
      "id": "node/5052338204"
    },
    {
      "type": "Feature",
      "properties": {
        "@id": "node/5054854083",
        "addr:street": "Rio Paucartambo",
        "amenity": "clinic",
        "name": "Policlinico Villa del Norte",
        "source": "Reconocimiento terrestre cartográfico realizado por Kaart en 2017"
      },
      "geometry": {
        "type": "Point",
        "coordinates": [
          -77.0711074,
          -11.9716672
        ]
      },
      "id": "node/5054854083"
    },
    {
      "type": "Feature",
      "properties": {
        "@id": "node/5056428735",
        "addr:street": "Tantamayo",
        "amenity": "clinic",
        "name": "Kex Lab",
        "source": "Kaart Ground Survey 2017"
      },
      "geometry": {
        "type": "Point",
        "coordinates": [
          -77.0890061,
          -11.9682111
        ]
      },
      "id": "node/5056428735"
    },
    {
      "type": "Feature",
      "properties": {
        "@id": "node/5056548618",
        "addr:street": "El Sol de Naranjal",
        "amenity": "clinic",
        "name": "Medicos Solidarios",
        "source": "Kaart Ground Survey 2017"
      },
      "geometry": {
        "type": "Point",
        "coordinates": [
          -77.0928974,
          -11.973047
        ]
      },
      "id": "node/5056548618"
    },
    {
      "type": "Feature",
      "properties": {
        "@id": "node/5056548958",
        "addr:street": "Jirón Los Pinares",
        "amenity": "clinic",
        "name": "MediDent Salud",
        "source": "Kaart Ground Survey 2017"
      },
      "geometry": {
        "type": "Point",
        "coordinates": [
          -77.0985602,
          -11.9797076
        ]
      },
      "id": "node/5056548958"
    },
    {
      "type": "Feature",
      "properties": {
        "@id": "node/5056847376",
        "addr:street": "Tantamayo",
        "amenity": "clinic",
        "name": "Mi Jesus",
        "source": "Kaart Ground Survey 2017"
      },
      "geometry": {
        "type": "Point",
        "coordinates": [
          -77.092036,
          -11.9645204
        ]
      },
      "id": "node/5056847376"
    },
    {
      "type": "Feature",
      "properties": {
        "@id": "node/5057263645",
        "addr:street": "Jirón Rmon Castilla",
        "amenity": "clinic",
        "name": "Luz Morán",
        "source": "Kaart Ground Survey 2017"
      },
      "geometry": {
        "type": "Point",
        "coordinates": [
          -77.7629357,
          -10.7487414
        ]
      },
      "id": "node/5057263645"
    },
    {
      "type": "Feature",
      "properties": {
        "@id": "node/5064872595",
        "addr:street": "Calle Algarrobos",
        "amenity": "clinic",
        "name": "Medicina General",
        "source": "Reconocimiento terrestre cartográfico realizado por Kaart en 2017"
      },
      "geometry": {
        "type": "Point",
        "coordinates": [
          -77.0837998,
          -11.9353036
        ]
      },
      "id": "node/5064872595"
    },
    {
      "type": "Feature",
      "properties": {
        "@id": "node/5071886312",
        "addr:housenumber": "232",
        "addr:street": "Jirón Luís N. Sáenz",
        "amenity": "clinic",
        "healthcare": "clinic",
        "name": "Policlínico del Colegio de Abogados",
        "website": "http://www.cal.org.pe/policlinico/index.html"
      },
      "geometry": {
        "type": "Point",
        "coordinates": [
          -77.0568304,
          -12.0806263
        ]
      },
      "id": "node/5071886312"
    },
    {
      "type": "Feature",
      "properties": {
        "@id": "node/5072576723",
        "addr:housenumber": "2665",
        "addr:street": "Avenida Salaverry",
        "amenity": "clinic",
        "healthcare": "clinic",
        "internet_access": "wlan",
        "name": "Clínica NovoClinic",
        "name:en": "Clínica NovoClinic",
        "name:es": "Clínica NovoClinic"
      },
      "geometry": {
        "type": "Point",
        "coordinates": [
          -77.0536152,
          -12.0941587
        ]
      },
      "id": "node/5072576723"
    },
    {
      "type": "Feature",
      "properties": {
        "@id": "node/5076423512",
        "addr:housenumber": "2249",
        "addr:street": "Avenida San Luis",
        "amenity": "clinic",
        "name": "Instituo Oftalmológico Centro Visión",
        "phone": "+51 1 2251627",
        "website": "http://institutocentrovision.pe"
      },
      "geometry": {
        "type": "Point",
        "coordinates": [
          -76.9952559,
          -12.0945492
        ]
      },
      "id": "node/5076423512"
    },
    {
      "type": "Feature",
      "properties": {
        "@id": "node/5076423515",
        "addr:city": "Jesús María",
        "addr:housenumber": "273",
        "addr:street": "Daniel Olaechea",
        "amenity": "clinic",
        "contact:facebook": "https://facebook.com/pages/Clínica-Hogar-De-Maria/177068099149829",
        "healthcare": "clinic",
        "name": "Clínica hogar de Maria",
        "phone": "+51 1 4633132"
      },
      "geometry": {
        "type": "Point",
        "coordinates": [
          -77.0504694,
          -12.0854717
        ]
      },
      "id": "node/5076423515"
    },
    {
      "type": "Feature",
      "properties": {
        "@id": "node/5076423518",
        "addr:housenumber": "1263",
        "addr:street": "Avenida Naranjal",
        "amenity": "clinic",
        "description": "Terapia de salud ocupacional",
        "name": "Laboratorio clínico Romero",
        "phone": "+51 1 6768144",
        "website": "https://romerolab.com"
      },
      "geometry": {
        "type": "Point",
        "coordinates": [
          -77.0793826,
          -11.9777959
        ]
      },
      "id": "node/5076423518"
    },
    {
      "type": "Feature",
      "properties": {
        "@id": "node/5082616122",
        "addr:housenumber": "218",
        "addr:street": "Avenida Manco Cápac",
        "amenity": "hospital",
        "healthcare": "hospital",
        "name": "Hospitalidad de la Solidaridad",
        "name:es": "Hospitalidad de la Solidaridad"
      },
      "geometry": {
        "type": "Point",
        "coordinates": [
          -77.0294569,
          -12.0609093
        ]
      },
      "id": "node/5082616122"
    },
    {
      "type": "Feature",
      "properties": {
        "@id": "node/5098888631",
        "addr:street": "Jirón La Merced",
        "amenity": "clinic",
        "name": "La Merced",
        "source": "Kaart Ground Survey 2017"
      },
      "geometry": {
        "type": "Point",
        "coordinates": [
          -77.6091115,
          -11.1067784
        ]
      },
      "id": "node/5098888631"
    },
    {
      "type": "Feature",
      "properties": {
        "@id": "node/5099020678",
        "addr:street": "Avenida Miguel Grau",
        "amenity": "clinic",
        "name": "Latin Lab",
        "source": "Kaart Ground Survey 2017"
      },
      "geometry": {
        "type": "Point",
        "coordinates": [
          -77.6083856,
          -11.1082362
        ]
      },
      "id": "node/5099020678"
    },
    {
      "type": "Feature",
      "properties": {
        "@id": "node/5176549021",
        "addr:city": "Villa María del Triunfo",
        "addr:housenumber": "740",
        "addr:postcode": "051",
        "addr:street": "Avenida 26 de Noviembre",
        "amenity": "clinic",
        "email": "Polisam14@hotmail.com",
        "healthcare": "clinic",
        "healthcare:speciality": "general",
        "internet_access": "wlan",
        "name": "Policlínico Esperanza",
        "opening_hours": "Mo-Sa 09:00-22:00",
        "phone": "+51 1 2911945"
      },
      "geometry": {
        "type": "Point",
        "coordinates": [
          -76.9343177,
          -12.1739737
        ]
      },
      "id": "node/5176549021"
    },
    {
      "type": "Feature",
      "properties": {
        "@id": "node/5253237421",
        "addr:city": "Miraflores",
        "addr:housenumber": "251",
        "addr:postcode": "15074",
        "addr:street": "Calle Elias Aguirre",
        "amenity": "clinic",
        "name": "Quiromasajes Santa Cruz",
        "opening_hours": "Mo-Sa 10:00-18:00; Su 00:00-24:00",
        "phone": "+51 1 4459870",
        "website": "http://www.quiromasajesantacruz.com"
      },
      "geometry": {
        "type": "Point",
        "coordinates": [
          -77.0349243,
          -12.1173842
        ]
      },
      "id": "node/5253237421"
    },
    {
      "type": "Feature",
      "properties": {
        "@id": "node/5321006174",
        "addr:city": "Villa María del Triunfo",
        "addr:street": "Avenida Atocongo",
        "alt_name": "Tópico UNACEN",
        "amenity": "clinic",
        "healthcare": "clinic",
        "healthcare:speciality": "general",
        "name": "Tópico de atocongo",
        "opening_hours": "Mo-Su 09:00-21:00",
        "operator": "Unacem",
        "operator:type": "private"
      },
      "geometry": {
        "type": "Point",
        "coordinates": [
          -76.9098088,
          -12.1967562
        ]
      },
      "id": "node/5321006174"
    },
    {
      "type": "Feature",
      "properties": {
        "@id": "node/5324586422",
        "addr:housenumber": "3856",
        "addr:street": "Avenida Las Palmeras",
        "amenity": "clinic",
        "name": "OncoMujer"
      },
      "geometry": {
        "type": "Point",
        "coordinates": [
          -77.071682,
          -11.9898731
        ]
      },
      "id": "node/5324586422"
    },
    {
      "type": "Feature",
      "properties": {
        "@id": "node/5436573621",
        "amenity": "clinic",
        "name": "Sanna"
      },
      "geometry": {
        "type": "Point",
        "coordinates": [
          -77.014149,
          -12.1159515
        ]
      },
      "id": "node/5436573621"
    },
    {
      "type": "Feature",
      "properties": {
        "@id": "node/5449109012",
        "addr:city": "Barrios Altos",
        "amenity": "clinic",
        "healthcare": "clinic",
        "healthcare:speciality": "general",
        "name": "Consultorios de Pediatría",
        "operator": "Instituto Nacional Materno Perinatal"
      },
      "geometry": {
        "type": "Point",
        "coordinates": [
          -77.0228585,
          -12.0525167
        ]
      },
      "id": "node/5449109012"
    },
    {
      "type": "Feature",
      "properties": {
        "@id": "node/5481482098",
        "addr:city": "Surquillo",
        "addr:housenumber": "2688",
        "addr:street": "Avenida Angamos Este",
        "amenity": "clinic",
        "healthcare": "clinic",
        "name": "Detecta",
        "phone": "+51 1 217 5100",
        "website": "http://www.detecta.pe/"
      },
      "geometry": {
        "type": "Point",
        "coordinates": [
          -77.0020054,
          -12.1121889
        ]
      },
      "id": "node/5481482098"
    },
    {
      "type": "Feature",
      "properties": {
        "@id": "node/5485493582",
        "addr:city": "San Borja",
        "addr:housenumber": "285",
        "addr:street": "Avenida San Borja Sur",
        "amenity": "clinic",
        "healthcare": "clinic",
        "healthcare:speciality": "surgery",
        "name": "SISOL Salud Centro Quirúrgico",
        "old_name": "Hospital de la Solidaridad San Borja",
        "opening_hours": "Mo-Sa 08:00-20:00",
        "operator": "Municipalidad Metropolitana de Lima",
        "phone": "+511 495 6004",
        "website": "https://www.sisol.gob.pe/"
      },
      "geometry": {
        "type": "Point",
        "coordinates": [
          -77.007959,
          -12.1004575
        ]
      },
      "id": "node/5485493582"
    },
    {
      "type": "Feature",
      "properties": {
        "@id": "node/5555041507",
        "addr:city": "Villa el Salvador",
        "addr:housenumber": "1350",
        "addr:street": "Avenida Micaela Bastidas",
        "amenity": "clinic",
        "healthcare": "clinic",
        "healthcare:speciality": "general",
        "name": "Centro de Salud Parroquial Santa Rosa de Lima",
        "operator": "Parroquia Cristo Resucitado"
      },
      "geometry": {
        "type": "Point",
        "coordinates": [
          -76.9474015,
          -12.2068372
        ]
      },
      "id": "node/5555041507"
    },
    {
      "type": "Feature",
      "properties": {
        "@id": "node/5569642261",
        "addr:city": "Villa María del Triunfo",
        "addr:housenumber": "200",
        "addr:street": "Avenida Latinoamerica",
        "amenity": "clinic",
        "email": "info@clinicamariahuarhua.com",
        "emergency": "yes",
        "healthcare": "clinic",
        "healthcare:speciality": "general",
        "name": "Clínica María Huarhua",
        "opening_hours": "Mo-Sa 08:00-21:30; Su 08:00-13:00",
        "phone": "+511 01 2831689",
        "website": "https://www.clinicamariahuarhua.com/"
      },
      "geometry": {
        "type": "Point",
        "coordinates": [
          -76.9495396,
          -12.1482844
        ]
      },
      "id": "node/5569642261"
    },
    {
      "type": "Feature",
      "properties": {
        "@id": "node/5577497869",
        "addr:city": "San Borja",
        "addr:door": "301-401",
        "addr:housenumber": "120",
        "addr:street": "Calles Carlos Ferreyros",
        "amenity": "clinic",
        "healthcare": "clinic",
        "healthcare:speciality": "ophthalmology",
        "name": "Mácula D&T",
        "phone": "+51 01 2050908",
        "website": "http://www.maculadt.com/"
      },
      "geometry": {
        "type": "Point",
        "coordinates": [
          -77.0080055,
          -12.0896306
        ]
      },
      "id": "node/5577497869"
    },
    {
      "type": "Feature",
      "properties": {
        "@id": "node/5605942363",
        "addr:city": "San Borja",
        "addr:housenumber": "325",
        "addr:street": "Avenida San Borja Sur",
        "amenity": "clinic",
        "email": "clinica@odontomedicagalla.com",
        "healthcare": "clinic",
        "healthcare:speciality": "orthodontics;dentist",
        "name": "Clínica Odontomédica Galla",
        "opening_hours": "Mo-Fr 09:00-22:30; Sa 09:00-13:00",
        "phone": "+511 475 0113",
        "room": "1",
        "website": "http://www.odontomedicagalla.com/"
      },
      "geometry": {
        "type": "Point",
        "coordinates": [
          -77.0071179,
          -12.1006269
        ]
      },
      "id": "node/5605942363"
    },
    {
      "type": "Feature",
      "properties": {
        "@id": "node/5612802334",
        "addr:city": "San Borja",
        "addr:housenumber": "231",
        "addr:street": "Avenida San Borja Sur",
        "amenity": "clinic",
        "email": "info@andromed.com.pe",
        "healthcare": "clinic",
        "healthcare:speciality": "urology;andrology;sexual;nephrology;laboratory",
        "name": "Andromed",
        "opening_hours": "Mo-Fr 08:00-17:00; Sa 09:30-13:30",
        "phone": "+511 6373034;637-3232;224-4105",
        "website": "https://andromed.com.pe/"
      },
      "geometry": {
        "type": "Point",
        "coordinates": [
          -77.0090056,
          -12.0998048
        ]
      },
      "id": "node/5612802334"
    },
    {
      "type": "Feature",
      "properties": {
        "@id": "node/5612802339",
        "addr:city": "San Borja",
        "addr:housenumber": "237",
        "addr:street": "Avenida San Borja Sur",
        "amenity": "clinic",
        "healthcare": "clinic",
        "healthcare:speciality": "general",
        "name": "Inmuno Vax",
        "phone": "+511 225-9347",
        "website": "http://www.inmunovax.com.pe/"
      },
      "geometry": {
        "type": "Point",
        "coordinates": [
          -77.0089232,
          -12.0998882
        ]
      },
      "id": "node/5612802339"
    },
    {
      "type": "Feature",
      "properties": {
        "@id": "node/5612802358",
        "addr:city": "San Borja",
        "addr:housenumber": "486",
        "addr:street": "Avenida San Borja Sur",
        "amenity": "clinic",
        "healthcare": "clinic",
        "healthcare:speciality": "dermatology",
        "name": "IBN Sina",
        "opening_hours": "Mo-Fr 09:00-21:00; Sa 09:00-18:00",
        "phone": "+511 223-2742"
      },
      "geometry": {
        "type": "Point",
        "coordinates": [
          -77.0047384,
          -12.1015327
        ]
      },
      "id": "node/5612802358"
    },
    {
      "type": "Feature",
      "properties": {
        "@id": "node/5623313508",
        "addr:city": "San Isidro",
        "addr:housenumber": "479",
        "addr:street": "Calle Los Libertadores",
        "amenity": "clinic",
        "healthcare": "clinic",
        "healthcare:speciality": "general",
        "name": "Clínica Los Libertadores"
      },
      "geometry": {
        "type": "Point",
        "coordinates": [
          -77.03747,
          -12.102643
        ]
      },
      "id": "node/5623313508"
    },
    {
      "type": "Feature",
      "properties": {
        "@id": "node/5677867622",
        "amenity": "clinic",
        "healthcare": "clinic",
        "name": "Mepso"
      },
      "geometry": {
        "type": "Point",
        "coordinates": [
          -76.9967311,
          -12.1117706
        ]
      },
      "id": "node/5677867622"
    },
    {
      "type": "Feature",
      "properties": {
        "@id": "node/5734942221",
        "amenity": "clinic",
        "name": "Noguchi"
      },
      "geometry": {
        "type": "Point",
        "coordinates": [
          -77.0574106,
          -12.0210776
        ]
      },
      "id": "node/5734942221"
    },
    {
      "type": "Feature",
      "properties": {
        "@id": "node/5741876922",
        "addr:street": "Calle Independencia",
        "amenity": "clinic",
        "healthcare": "clinic",
        "name": "Clinica Internacional Oncología Rimac"
      },
      "geometry": {
        "type": "Point",
        "coordinates": [
          -77.0326302,
          -12.1086398
        ]
      },
      "id": "node/5741876922"
    },
    {
      "type": "Feature",
      "properties": {
        "@id": "node/5749810660",
        "amenity": "hospital",
        "healthcare": "hospital",
        "healthcare:speciality": "clinic",
        "name": "Centro de Salud"
      },
      "geometry": {
        "type": "Point",
        "coordinates": [
          -56.4816972,
          -23.8828836
        ]
      },
      "id": "node/5749810660"
    },
    {
      "type": "Feature",
      "properties": {
        "@id": "node/5987734550",
        "amenity": "clinic",
        "healthcare": "clinic",
        "name": "Policlinico Paul Nogier"
      },
      "geometry": {
        "type": "Point",
        "coordinates": [
          -77.0384354,
          -11.8968807
        ]
      },
      "id": "node/5987734550"
    },
    {
      "type": "Feature",
      "properties": {
        "@id": "node/6060615285",
        "addr:housenumber": "409",
        "addr:street": "Avenida Siempre Viva",
        "amenity": "clinic",
        "name": "PAAD de ESSALUD"
      },
      "geometry": {
        "type": "Point",
        "coordinates": [
          -77.0354137,
          -11.8983675
        ]
      },
      "id": "node/6060615285"
    },
    {
      "type": "Feature",
      "properties": {
        "@id": "node/6150447086",
        "addr:housenumber": "262",
        "addr:street": "Jirón El Lanzón",
        "amenity": "clinic",
        "name": "Policlinico de Jesús"
      },
      "geometry": {
        "type": "Point",
        "coordinates": [
          -77.0035448,
          -12.0267763
        ]
      },
      "id": "node/6150447086"
    },
    {
      "type": "Feature",
      "properties": {
        "@id": "node/6315281683",
        "amenity": "clinic",
        "healthcare": "clinic",
        "name": "Centro Médico Parroquial Santa Ana"
      },
      "geometry": {
        "type": "Point",
        "coordinates": [
          -76.9182219,
          -12.2220949
        ]
      },
      "id": "node/6315281683"
    },
    {
      "type": "Feature",
      "properties": {
        "@id": "node/6373713685",
        "addr:street": "Calle Los Gavilanes",
        "amenity": "clinic",
        "description": "Centro de Rehabilitación SaludableMente",
        "name": "SaludableMente"
      },
      "geometry": {
        "type": "Point",
        "coordinates": [
          -76.9379589,
          -12.0132439
        ]
      },
      "id": "node/6373713685"
    },
    {
      "type": "Feature",
      "properties": {
        "@id": "node/6476468286",
        "addr:housenumber": "461",
        "addr:street": "Avenida Guzmán Blanco",
        "amenity": "clinic",
        "healthcare": "clinic",
        "name": "Osteoperu",
        "phone": "+51 968864110",
        "website": "http://osteoperu.com"
      },
      "geometry": {
        "type": "Point",
        "coordinates": [
          -77.039673,
          -12.0633212
        ]
      },
      "id": "node/6476468286"
    },
    {
      "type": "Feature",
      "properties": {
        "@id": "node/6564060586",
        "amenity": "clinic",
        "name": "Natclar"
      },
      "geometry": {
        "type": "Point",
        "coordinates": [
          -77.0112681,
          -12.083843
        ]
      },
      "id": "node/6564060586"
    },
    {
      "type": "Feature",
      "properties": {
        "@id": "node/6571247132",
        "addr:city": "San Juan de Lurigancho",
        "addr:full": "Avenida República de Polonia Asentamiento Humano Trabajadores",
        "addr:street": "Avenida Republica de Polonia",
        "amenity": "hospital",
        "healthcare": "hospital",
        "healthcare:speciality": "general",
        "name": "SISOL Salud Centro Médico Trabajadores Hospital del Niño",
        "old_name": "Hospital de la Solidaridad Trabajadores Hospital del Niño",
        "opening_hours": "Mo-Sa 08:00-17:00",
        "operator": "Municipalidad Metropolitana de Lima",
        "operator:wikidata": "Q12184118",
        "phone": "+511 387 0490",
        "website": "https://www.sisol.gob.pe/"
      },
      "geometry": {
        "type": "Point",
        "coordinates": [
          -76.990319,
          -11.9585671
        ]
      },
      "id": "node/6571247132"
    },
    {
      "type": "Feature",
      "properties": {
        "@id": "node/6571278172",
        "addr:city": "Surquillo",
        "addr:housenumber": "360",
        "addr:street": "Calle Las Aguilas",
        "amenity": "clinic",
        "email": "Info@clinicasantamaria.pe",
        "emergency": "yes",
        "emergency:phone": "+51 993520854",
        "healthcare": "clinic",
        "healthcare:speciality": "general",
        "name": "Clínica Santa María",
        "opening_hours": "24/7",
        "phone": "+511 4216860",
        "website": "https://clinicasantamaria.pe/"
      },
      "geometry": {
        "type": "Point",
        "coordinates": [
          -77.0262065,
          -12.103427
        ]
      },
      "id": "node/6571278172"
    },
    {
      "type": "Feature",
      "properties": {
        "@id": "node/6577831603",
        "addr:city": "Chorrillos",
        "addr:street": "Calle 15 de Octubre",
        "amenity": "clinic",
        "healthcare": "centre",
        "healthcare:speciality": "general",
        "name": "Centro de Salud Buenos Aires de Villa",
        "operator": "MINSA",
        "phone": "+51 01 2583948",
        "ref:category": "I-4",
        "ref:microred": "2",
        "ref:red": "1"
      },
      "geometry": {
        "type": "Point",
        "coordinates": [
          -77.0050294,
          -12.188693
        ]
      },
      "id": "node/6577831603"
    },
    {
      "type": "Feature",
      "properties": {
        "@id": "node/6577890321",
        "addr:city": "San Isidro",
        "addr:housenumber": "115",
        "addr:street": "Avenida Pablo Carriquirry",
        "amenity": "clinic",
        "email": "informesoncologia.si@ipor.pe",
        "emergency": "yes",
        "healthcare": "clinic",
        "healthcare:speciality": "oncology;radiotherapy",
        "name": "Instituto de Oncología & Radioterapia",
        "opening_hours": "Mo-Fr 08:00-19:00",
        "operator": "Clínica Ricardo Palma",
        "phone": "+511 2241598",
        "website": "https://www.oncologiaricardopalma.com/"
      },
      "geometry": {
        "type": "Point",
        "coordinates": [
          -77.0188622,
          -12.0907566
        ]
      },
      "id": "node/6577890321"
    },
    {
      "type": "Feature",
      "properties": {
        "@id": "node/6652448548",
        "addr:city": "Jesús María",
        "addr:housenumber": "1302",
        "addr:street": "Avenida Álvarez de Arenales",
        "alt_name": "Programa de Atención a Domiciliaria",
        "amenity": "clinic",
        "healthcare": "clinic",
        "healthcare:speciality": "general;geriatrics",
        "name": "PADOMI",
        "operator": "EsSalud",
        "operator:type": "public",
        "room": "212"
      },
      "geometry": {
        "type": "Point",
        "coordinates": [
          -77.0369715,
          -12.078143
        ]
      },
      "id": "node/6652448548"
    },
    {
      "type": "Feature",
      "properties": {
        "@id": "node/6652462590",
        "addr:city": "Lima",
        "addr:housenumber": "1148",
        "addr:street": "Avenida Arequipa",
        "alt_name": "Clínica La Luz Sede Central",
        "amenity": "clinic",
        "contact:facebook": "https://www.facebook.com/ClinicaLaLuz/",
        "contact:instagram": "https://www.instagram.com/clinicalaluz/",
        "email": "comunicaciones@clinicalaluz.pe",
        "emergency": "yes",
        "healthcare": "clinic",
        "healthcare:speciality": "general",
        "name": "Clínica La Luz",
        "opening_hours": "24/7",
        "phone": "+511 6139292",
        "website": "https://clinicalaluz.pe/"
      },
      "geometry": {
        "type": "Point",
        "coordinates": [
          -77.0359383,
          -12.0762784
        ]
      },
      "id": "node/6652462590"
    },
    {
      "type": "Feature",
      "properties": {
        "@id": "node/6696066081",
        "addr:city": "San Juan de Miraflores",
        "addr:housenumber": "998",
        "addr:street": "Avenida Belisario Suárez",
        "amenity": "clinic",
        "emergency": "yes",
        "healthcare": "clinic",
        "healthcare:speciality": "general",
        "name": "Clínica Santa Martha del Sur",
        "old_name": "Clinica Santa María del Sur",
        "opening_hours": "24/7",
        "phone": "+511 6156767",
        "website": "https://www.santamarthadelsur.com.pe/",
        "wheelchair": "yes"
      },
      "geometry": {
        "type": "Point",
        "coordinates": [
          -76.9654098,
          -12.1630879
        ]
      },
      "id": "node/6696066081"
    },
    {
      "type": "Feature",
      "properties": {
        "@id": "node/6833287285",
        "amenity": "clinic",
        "name": "Clínica Oftalmológica Ñahui"
      },
      "geometry": {
        "type": "Point",
        "coordinates": [
          -77.0240694,
          -12.113608
        ]
      },
      "id": "node/6833287285"
    },
    {
      "type": "Feature",
      "properties": {
        "@id": "node/6848531503",
        "addr:street": "Calle San Martin",
        "amenity": "clinic",
        "name": "Ambar",
        "operator": "Gobierno Regional",
        "phone": "+51 1 6885942",
        "ref:category": "I-3",
        "ref:microred": "3",
        "ref:red": "2"
      },
      "geometry": {
        "type": "Point",
        "coordinates": [
          -77.2721798,
          -10.7565681
        ]
      },
      "id": "node/6848531503"
    },
    {
      "type": "Feature",
      "properties": {
        "@id": "node/6848848301",
        "addr:full": "Centro Poblado Huayopampa",
        "amenity": "clinic",
        "name": "Huayopampa",
        "operator": "Gobierno Regional",
        "phone": "+51 975512476",
        "ref:category": "I-3",
        "ref:microred": "8",
        "ref:red": "3"
      },
      "geometry": {
        "type": "Point",
        "coordinates": [
          -76.8235475,
          -11.3552285
        ]
      },
      "id": "node/6848848301"
    },
    {
      "type": "Feature",
      "properties": {
        "@id": "node/6848886641",
        "addr:full": "Avenida J.C. Mariategui, Mz. C, Lote 49-50 - Urb. Lucumo, Pariachi",
        "amenity": "clinic",
        "name": "Centro de Atencion Primaria Iii - Huaycan - Red Asistencial Almenara",
        "operator": "Essalud",
        "phone": "+51 1 3715760",
        "ref:category": "I-3",
        "ref:microred": "0",
        "ref:red": "0"
      },
      "geometry": {
        "type": "Point",
        "coordinates": [
          -76.8299049,
          -12.0097798
        ]
      },
      "id": "node/6848886641"
    },
    {
      "type": "Feature",
      "properties": {
        "@id": "node/6848890539",
        "addr:full": "Mza. V- Asentamiento Humano M. Bastidas",
        "amenity": "clinic",
        "name": "Micaela Bastidas",
        "operator": "Minsa",
        "phone": "+51 01 3516107",
        "ref:category": "I-3",
        "ref:microred": "4",
        "ref:red": "1"
      },
      "geometry": {
        "type": "Point",
        "coordinates": [
          -76.931598,
          -12.04457
        ]
      },
      "id": "node/6848890539"
    },
    {
      "type": "Feature",
      "properties": {
        "@id": "node/6848896005",
        "addr:full": "Pasaje 3 de Mayo 140 -MZ.B Lote 12",
        "amenity": "clinic",
        "name": "El Bosque",
        "operator": "Minsa",
        "phone": "+51 01 3265005",
        "ref:category": "I-3",
        "ref:microred": "5",
        "ref:red": "1"
      },
      "geometry": {
        "type": "Point",
        "coordinates": [
          -76.987062,
          -12.063413
        ]
      },
      "id": "node/6848896005"
    },
    {
      "type": "Feature",
      "properties": {
        "@id": "node/6852269299",
        "addr:street": "Avenida San Carlos",
        "amenity": "clinic",
        "name": "Palpa",
        "operator": "Gobierno Regional",
        "phone": "+51 997869001",
        "ref:category": "I-3",
        "ref:microred": "3",
        "ref:red": "3"
      },
      "geometry": {
        "type": "Point",
        "coordinates": [
          -77.1196548,
          -11.4883476
        ]
      },
      "id": "node/6852269299"
    },
    {
      "type": "Feature",
      "properties": {
        "@id": "node/6852269301",
        "addr:full": "Centro Poblado Aucallama",
        "amenity": "clinic",
        "name": "Aucallama",
        "operator": "Gobierno Regional",
        "phone": "+51 945091764",
        "ref:category": "I-3",
        "ref:microred": "3",
        "ref:red": "3"
      },
      "geometry": {
        "type": "Point",
        "coordinates": [
          -77.1757338,
          -11.5608465
        ]
      },
      "id": "node/6852269301"
    },
    {
      "type": "Feature",
      "properties": {
        "@id": "node/6852718357",
        "addr:street": "Calle Socabaya",
        "amenity": "clinic",
        "name": "Lauriama",
        "operator": "Gobierno Regional",
        "phone": "+51 01 2354677",
        "ref:category": "I-3",
        "ref:microred": "1",
        "ref:red": "1"
      },
      "geometry": {
        "type": "Point",
        "coordinates": [
          -77.7568,
          -10.7465417
        ]
      },
      "id": "node/6852718357"
    },
    {
      "type": "Feature",
      "properties": {
        "@id": "node/6852718358",
        "addr:full": "Avenida Florida -Centro Poblado San Alejo",
        "amenity": "clinic",
        "healthcare": "clinic",
        "name": "Pampa San Alejo",
        "operator": "Gobierno Regional",
        "operator:wikidata": "Q3824815",
        "phone": "+51 1 2352075",
        "ref:category": "I-1",
        "ref:microred": "1",
        "ref:red": "1"
      },
      "geometry": {
        "type": "Point",
        "coordinates": [
          -77.6795884,
          -10.6871303
        ]
      },
      "id": "node/6852718358"
    },
    {
      "type": "Feature",
      "properties": {
        "@id": "node/6858834565",
        "amenity": "clinic",
        "name": "Huinco",
        "operator": "Gobierno Regional",
        "phone": "+51 01 3559720",
        "ref:category": "I-3",
        "ref:microred": "5",
        "ref:red": "9"
      },
      "geometry": {
        "type": "Point",
        "coordinates": [
          -76.614241,
          -11.7701347
        ]
      },
      "id": "node/6858834565"
    },
    {
      "type": "Feature",
      "properties": {
        "@id": "node/6858852063",
        "addr:street": "Calle Mariategui",
        "amenity": "clinic",
        "is_in:department": "Lima",
        "is_in:district": "Catahuasi",
        "name": "Catahuasi",
        "operator": "Gobierno Regional",
        "phone": "+51 992787043",
        "ref:category": "I-3",
        "ref:microred": "7",
        "ref:red": "7"
      },
      "geometry": {
        "type": "Point",
        "coordinates": [
          -75.8924146,
          -12.7991582
        ]
      },
      "id": "node/6858852063"
    },
    {
      "type": "Feature",
      "properties": {
        "@id": "node/6861248684",
        "amenity": "clinic",
        "name": "Clas Pedro Canevaro Garay de Chancayllo",
        "operator": "Gobierno Regional",
        "phone": "+51 999094538",
        "ref:category": "I-3",
        "ref:microred": "3",
        "ref:red": "3"
      },
      "geometry": {
        "type": "Point",
        "coordinates": [
          -77.3052452,
          -11.489382
        ]
      },
      "id": "node/6861248684"
    },
    {
      "type": "Feature",
      "properties": {
        "@id": "node/6861281686",
        "amenity": "clinic",
        "name": "Peralvillo",
        "operator": "Gobierno Regional",
        "phone": "+51 01 3771261",
        "ref:category": "I-3",
        "ref:microred": "3",
        "ref:red": "3"
      },
      "geometry": {
        "type": "Point",
        "coordinates": [
          -77.2617843,
          -11.589614
        ]
      },
      "id": "node/6861281686"
    },
    {
      "type": "Feature",
      "properties": {
        "@id": "node/6861281687",
        "amenity": "clinic",
        "name": "Centro de Atencion Primaria Ii Chancay",
        "operator": "Essalud",
        "phone": "+51 01 3771088",
        "ref:category": "I-3",
        "ref:microred": "0",
        "ref:red": "0"
      },
      "geometry": {
        "type": "Point",
        "coordinates": [
          -77.2700788,
          -11.5621731
        ]
      },
      "id": "node/6861281687"
    },
    {
      "type": "Feature",
      "properties": {
        "@id": "node/6864312154",
        "addr:full": "Calle Brasilia Cuadra 1; Urb El Parral",
        "amenity": "clinic",
        "name": "Carlos Phillips",
        "operator": "Minsa",
        "phone": "+511 5250769",
        "ref:category": "I-3",
        "ref:microred": "2",
        "ref:red": "24"
      },
      "geometry": {
        "type": "Point",
        "coordinates": [
          -77.057458,
          -11.959672
        ]
      },
      "id": "node/6864312154"
    },
    {
      "type": "Feature",
      "properties": {
        "@id": "node/6867741573",
        "addr:full": "Agrupacion Familiar los Jardines; Ex Ancieta Baja - Mz G Lote 4",
        "amenity": "clinic",
        "name": "Ancieta Baja",
        "operator": "Minsa",
        "phone": "+511 3853270",
        "ref:category": "I-3",
        "ref:microred": "1",
        "ref:red": "1"
      },
      "geometry": {
        "type": "Point",
        "coordinates": [
          -77.0074911,
          -12.0318422
        ]
      },
      "id": "node/6867741573"
    },
    {
      "type": "Feature",
      "properties": {
        "@id": "node/6867741574",
        "addr:full": "Los Artesanos 166 Asoc.Viv. Bethania",
        "amenity": "clinic",
        "healthcare": "clinic",
        "name": "Bethania",
        "operator": "Ministerio de Salud del Perú",
        "operator:short": "MINSA",
        "operator:wikidata": "Q3065012",
        "phone": "+511 3851197",
        "ref:category": "I-3",
        "ref:microred": "1",
        "ref:red": "1"
      },
      "geometry": {
        "type": "Point",
        "coordinates": [
          -76.9927754,
          -12.0276727
        ]
      },
      "id": "node/6867741574"
    },
    {
      "type": "Feature",
      "properties": {
        "@id": "node/6868055221",
        "addr:street": "Avenida Santa Rosa",
        "amenity": "clinic",
        "name": "7 de Octubre",
        "operator": "Minsa",
        "phone": "+511 3264766",
        "ref:category": "I-3",
        "ref:microred": "5",
        "ref:red": "1"
      },
      "geometry": {
        "type": "Point",
        "coordinates": [
          -76.994256,
          -12.055972
        ]
      },
      "id": "node/6868055221"
    },
    {
      "type": "Feature",
      "properties": {
        "@id": "node/6868055225",
        "addr:street": "Avenida Garcilazo de la Vega Cdra. 3",
        "amenity": "clinic",
        "name": "Santa Magdalena Sofia",
        "operator": "Minsa",
        "phone": "+511 3236296",
        "ref:category": "I-3",
        "ref:microred": "5",
        "ref:red": "1"
      },
      "geometry": {
        "type": "Point",
        "coordinates": [
          -77.003646,
          -12.0605147
        ]
      },
      "id": "node/6868055225"
    },
    {
      "type": "Feature",
      "properties": {
        "@id": "node/6913674360",
        "addr:housenumber": "371",
        "addr:street": "Avenida Hualmay",
        "amenity": "clinic",
        "name": "Hualmay",
        "operator": "Gobierno Regional",
        "phone": "+511 2394342",
        "ref:category": "I-3",
        "ref:microred": "1",
        "ref:red": "2"
      },
      "geometry": {
        "type": "Point",
        "coordinates": [
          -77.6066588,
          -11.0954807
        ]
      },
      "id": "node/6913674360"
    },
    {
      "type": "Feature",
      "properties": {
        "@id": "node/6916505923",
        "addr:street": "Avenida los Geranios",
        "amenity": "clinic",
        "name": "El Trebol",
        "operator": "Gobierno Regional",
        "ref:category": "I-3",
        "ref:microred": "4",
        "ref:red": "3"
      },
      "geometry": {
        "type": "Point",
        "coordinates": [
          -77.2342939,
          -11.4980083
        ]
      },
      "id": "node/6916505923"
    },
    {
      "type": "Feature",
      "properties": {
        "@id": "node/6916725424",
        "addr:street": "Avenida Santa Rosa",
        "amenity": "clinic",
        "name": "Huarochiri",
        "operator": "Gobierno Regional",
        "phone": "+511 3559720",
        "ref:category": "I-3",
        "ref:microred": "1",
        "ref:red": "9"
      },
      "geometry": {
        "type": "Point",
        "coordinates": [
          -76.2346017,
          -12.1385206
        ]
      },
      "id": "node/6916725424"
    },
    {
      "type": "Feature",
      "properties": {
        "@id": "node/6916795134",
        "addr:street": "Avenida San Francisco",
        "amenity": "clinic",
        "name": "Huaura",
        "operator": "Gobierno Regional",
        "phone": "+511 3411810",
        "ref:category": "I-3",
        "ref:microred": "3",
        "ref:red": "2"
      },
      "geometry": {
        "type": "Point",
        "coordinates": [
          -77.5991176,
          -11.0676508
        ]
      },
      "id": "node/6916795134"
    },
    {
      "type": "Feature",
      "properties": {
        "@id": "node/6916795135",
        "addr:street": "Avenida Ancash",
        "amenity": "clinic",
        "name": "Socorro",
        "operator": "Gobierno Regional",
        "phone": "+511 3414450",
        "ref:category": "I-3",
        "ref:microred": "3",
        "ref:red": "2"
      },
      "geometry": {
        "type": "Point",
        "coordinates": [
          -77.6057681,
          -11.0707728
        ]
      },
      "id": "node/6916795135"
    },
    {
      "type": "Feature",
      "properties": {
        "@id": "node/6928680851",
        "addr:full": "Centro Poblado Yunguy",
        "amenity": "clinic",
        "name": "Yunguy",
        "operator": "Gobierno Regional",
        "phone": "+511 2462990",
        "ref:category": "I-3",
        "ref:microred": "5",
        "ref:red": "3"
      },
      "geometry": {
        "type": "Point",
        "coordinates": [
          -76.934773,
          -11.2873519
        ]
      },
      "id": "node/6928680851"
    },
    {
      "type": "Feature",
      "properties": {
        "@id": "node/6928761736",
        "amenity": "clinic",
        "name": "Milagro de la Fraternidad",
        "operator": "Minsa",
        "phone": "+511 5347777",
        "ref:category": "I-3",
        "ref:microred": "1",
        "ref:red": "24"
      },
      "geometry": {
        "type": "Point",
        "coordinates": [
          -77.048973,
          -12.0115908
        ]
      },
      "id": "node/6928761736"
    },
    {
      "type": "Feature",
      "properties": {
        "@id": "node/6928763270",
        "addr:full": "Avenida los Ficus Cuadra 3, Urbanización Las Violetas",
        "amenity": "clinic",
        "name": "Sistema Metropolitano de la Solidaridad / Solidaridad Salud \"LAS Violetas\"",
        "operator": "Municipalidad Provincial",
        "phone": "+511 54345510",
        "ref:category": "I-3",
        "ref:microred": "0",
        "ref:red": "0"
      },
      "geometry": {
        "type": "Point",
        "coordinates": [
          -77.0427505,
          -12.0425547
        ]
      },
      "id": "node/6928763270"
    },
    {
      "type": "Feature",
      "properties": {
        "@id": "node/7044532502",
        "addr:street": "Calle El Haras",
        "amenity": "clinic",
        "name": "La Molina",
        "operator": "Minsa",
        "phone": "+51 1 3680119",
        "ref:category": "I-3",
        "ref:microred": "6",
        "ref:red": "1"
      },
      "geometry": {
        "type": "Point",
        "coordinates": [
          -76.9363206,
          -12.0805899
        ]
      },
      "id": "node/7044532502"
    },
    {
      "type": "Feature",
      "properties": {
        "@id": "node/7044816932",
        "addr:housenumber": "670",
        "addr:street": "Avenida Prolongacion Cangallo",
        "amenity": "clinic",
        "name": "Posta Medica Construccion Civil",
        "operator": "Essalud",
        "phone": "+511 4744389",
        "ref:category": "I-3",
        "ref:microred": "0",
        "ref:red": "0"
      },
      "geometry": {
        "type": "Point",
        "coordinates": [
          -77.0208963,
          -12.0656101
        ]
      },
      "id": "node/7044816932"
    },
    {
      "type": "Feature",
      "properties": {
        "@id": "node/7044855349",
        "addr:housenumber": "925",
        "addr:street": "Jirón Cuzco",
        "amenity": "clinic",
        "name": "Juan Perez Carranza",
        "operator": "Minsa",
        "phone": "+511 3287304",
        "ref:category": "I-3",
        "ref:microred": "1",
        "ref:red": "21"
      },
      "geometry": {
        "type": "Point",
        "coordinates": [
          -77.0227842,
          -12.0536769
        ]
      },
      "id": "node/7044855349"
    },
    {
      "type": "Feature",
      "properties": {
        "@id": "node/7044986881",
        "addr:full": "Calle 11 - Asociacion de Vivienda Rio Santa",
        "amenity": "clinic",
        "name": "Rio Santa",
        "operator": "Minsa",
        "phone": "+511 5288305",
        "ref:category": "I-3",
        "ref:microred": "3",
        "ref:red": "25"
      },
      "geometry": {
        "type": "Point",
        "coordinates": [
          -77.0727693,
          -11.9481378
        ]
      },
      "id": "node/7044986881"
    },
    {
      "type": "Feature",
      "properties": {
        "@id": "node/7045095922",
        "addr:full": "Mz D Lote 2 Centro Poblado Virgen del Carmen la Era",
        "amenity": "clinic",
        "name": "Virgen del Carmen - la Era",
        "operator": "Minsa",
        "phone": "+511 3590344",
        "ref:category": "I-3",
        "ref:microred": "7",
        "ref:red": "1"
      },
      "geometry": {
        "type": "Point",
        "coordinates": [
          -76.8374527,
          -11.9847685
        ]
      },
      "id": "node/7045095922"
    },
    {
      "type": "Feature",
      "properties": {
        "@id": "node/7045120516",
        "amenity": "clinic",
        "name": "Nieveria del Paraiso",
        "operator": "Minsa",
        "phone": "+511 7173749",
        "ref:category": "I-3",
        "ref:microred": "9",
        "ref:red": "1"
      },
      "geometry": {
        "type": "Point",
        "coordinates": [
          -76.907971,
          -11.976816
        ]
      },
      "id": "node/7045120516"
    },
    {
      "type": "Feature",
      "properties": {
        "@id": "node/7050371109",
        "addr:housenumber": "825-827",
        "addr:street": "Calle Prolongacion Real",
        "amenity": "clinic",
        "name": "Centro Medico Mala",
        "operator": "Essalud",
        "ref:category": "I-3"
      },
      "geometry": {
        "type": "Point",
        "coordinates": [
          -76.6304054,
          -12.6616798
        ]
      },
      "id": "node/7050371109"
    },
    {
      "type": "Feature",
      "properties": {
        "@id": "node/7061603578",
        "addr:full": "Centro Poblado Pacaraos",
        "amenity": "clinic",
        "name": "Pacaraos",
        "operator": "Gobierno Regional",
        "phone": "+511 8100807",
        "ref:category": "I-3",
        "ref:microred": "7",
        "ref:red": "3"
      },
      "geometry": {
        "type": "Point",
        "coordinates": [
          -76.6493144,
          -11.1879053
        ]
      },
      "id": "node/7061603578"
    },
    {
      "type": "Feature",
      "properties": {
        "@id": "node/7061608792",
        "addr:housenumber": "270",
        "addr:street": "Calle Alfonso Ugarte",
        "amenity": "clinic",
        "name": "Oyon",
        "operator": "Gobierno Regional",
        "phone": "+511 2372015",
        "ref:category": "I-3",
        "ref:microred": "5",
        "ref:red": "2"
      },
      "geometry": {
        "type": "Point",
        "coordinates": [
          -76.772513,
          -10.6655876
        ]
      },
      "id": "node/7061608792"
    },
    {
      "type": "Feature",
      "properties": {
        "@id": "node/7061640460",
        "addr:street": "Pasaje Santa Rosa",
        "amenity": "clinic",
        "name": "Pacaran",
        "operator": "Gobierno Regional",
        "phone": "+51 975766706",
        "ref:category": "I-3",
        "ref:microred": "3",
        "ref:red": "7"
      },
      "geometry": {
        "type": "Point",
        "coordinates": [
          -76.0524655,
          -12.8672473
        ]
      },
      "id": "node/7061640460"
    },
    {
      "type": "Feature",
      "properties": {
        "@id": "node/7061715918",
        "addr:street": "Avenida Fuentes Rivera",
        "amenity": "clinic",
        "name": "Churin",
        "operator": "Gobierno Regional",
        "phone": "+511 2373027",
        "ref:category": "I-3",
        "ref:microred": "5",
        "ref:red": "2"
      },
      "geometry": {
        "type": "Point",
        "coordinates": [
          -76.8765226,
          -10.8151843
        ]
      },
      "id": "node/7061715918"
    },
    {
      "type": "Feature",
      "properties": {
        "@id": "node/7063647133",
        "addr:street": "Avenida Miguel Grau",
        "amenity": "clinic",
        "name": "Centro de Atencion Primaria II Paramonga",
        "operator": "Essalud",
        "phone": "+511 2360111",
        "ref:category": "I-3",
        "ref:microred": "0",
        "ref:red": "0"
      },
      "geometry": {
        "type": "Point",
        "coordinates": [
          -77.8160645,
          -10.6743647
        ]
      },
      "id": "node/7063647133"
    },
    {
      "type": "Feature",
      "properties": {
        "@id": "node/7063969585",
        "amenity": "clinic",
        "name": "Pativilca",
        "operator": "Gobierno Regional",
        "phone": "+511 2388095",
        "ref:category": "I-3",
        "ref:microred": "3",
        "ref:red": "1"
      },
      "geometry": {
        "type": "Point",
        "coordinates": [
          -77.7799228,
          -10.6962016
        ]
      },
      "id": "node/7063969585"
    },
    {
      "type": "Feature",
      "properties": {
        "@id": "node/7064559509",
        "addr:full": "Calle San Cristobal 104 - Urbanización Santa Isabel",
        "amenity": "clinic",
        "name": "Clinica San Juan de Dios de Piura",
        "operator:type": "private",
        "phone": "+51 73 310874",
        "ref:category": "I-3",
        "ref:microred": "0",
        "ref:red": "0"
      },
      "geometry": {
        "type": "Point",
        "coordinates": [
          -77.0377079,
          -12.0423763
        ]
      },
      "id": "node/7064559509"
    },
    {
      "type": "Feature",
      "properties": {
        "@id": "node/7064846912",
        "addr:full": "Asentamiento humano Benjamin Doig Lossio Mz 21 Lt 13",
        "amenity": "clinic",
        "name": "Centro de Salud Benjamin Doig",
        "operator": "Minsa",
        "phone": "+511 2319189",
        "ref:category": "I-3",
        "ref:microred": "7",
        "ref:red": "3"
      },
      "geometry": {
        "type": "Point",
        "coordinates": [
          -76.7507288,
          -12.469892
        ]
      },
      "id": "node/7064846912"
    },
    {
      "type": "Feature",
      "properties": {
        "@id": "node/7070157778",
        "addr:housenumber": "103",
        "addr:street": "Avenida Alameda Grau",
        "amenity": "clinic",
        "name": "Ricardo Palma",
        "operator": "Gobierno Regional",
        "phone": "+51 949993636",
        "ref:category": "I-4",
        "ref:microred": "3",
        "ref:red": "9"
      },
      "geometry": {
        "type": "Point",
        "coordinates": [
          -76.6639693,
          -11.9234655
        ]
      },
      "id": "node/7070157778"
    },
    {
      "type": "Feature",
      "properties": {
        "@id": "node/7070169062",
        "addr:full": "Avenida Santa Rosa - Barrio Fiscal Piedra Liza",
        "amenity": "clinic",
        "name": "Piedra Liza",
        "operator": "Minsa",
        "ref:category": "I-4",
        "ref:microred": "0",
        "ref:red": "0"
      },
      "geometry": {
        "type": "Point",
        "coordinates": [
          -77.0128866,
          -12.0325609
        ]
      },
      "id": "node/7070169062"
    },
    {
      "type": "Feature",
      "properties": {
        "@id": "node/7070475136",
        "addr:street": "Calle Libertad",
        "amenity": "clinic",
        "name": "San Antonio",
        "operator": "Gobierno Regional",
        "phone": "+511 5308046",
        "ref:category": "I-3",
        "ref:microred": "3",
        "ref:red": "8"
      },
      "geometry": {
        "type": "Point",
        "coordinates": [
          -76.6542471,
          -12.6367658
        ]
      },
      "id": "node/7070475136"
    },
    {
      "type": "Feature",
      "properties": {
        "@id": "node/7070517817",
        "addr:housenumber": "2674",
        "addr:street": "Avenida Javier Prado",
        "amenity": "clinic",
        "name": "Omnia Medica S.A.C.",
        "operator:type": "private",
        "phone": "+511 6271000",
        "ref:category": "I-3",
        "ref:microred": "0",
        "ref:red": "0"
      },
      "geometry": {
        "type": "Point",
        "coordinates": [
          -76.9982295,
          -12.0876702
        ]
      },
      "id": "node/7070517817"
    },
    {
      "type": "Feature",
      "properties": {
        "@id": "node/7072436148",
        "amenity": "clinic",
        "healthcare": "clinic",
        "name": "Quiripa",
        "operator": "Gobierno Regional",
        "operator:wikidata": "Q3824815",
        "phone": "+511 3559720",
        "ref:category": "I-1",
        "ref:microred": "1",
        "ref:red": "9"
      },
      "geometry": {
        "type": "Point",
        "coordinates": [
          -76.2348903,
          -12.2071466
        ]
      },
      "id": "node/7072436148"
    },
    {
      "type": "Feature",
      "properties": {
        "@id": "node/7072920787",
        "addr:full": "Avenida Lima Mz. C Lte. 21-22 - Canto Chico",
        "amenity": "clinic",
        "healthcare": "clinic",
        "name": "Santa Rosa de Lima",
        "operator": "Ministerio de Salud del Perú",
        "operator:short": "MINSA",
        "operator:wikidata": "Q3065012",
        "phone": "+51 1 3760431",
        "ref:category": "I-3",
        "ref:microred": "2",
        "ref:red": "2"
      },
      "geometry": {
        "type": "Point",
        "coordinates": [
          -77.016424,
          -12.0053943
        ]
      },
      "id": "node/7072920787"
    },
    {
      "type": "Feature",
      "properties": {
        "@id": "node/7072946162",
        "addr:full": "Pueblo Joven Jesus Poderoso Lote C Mz T",
        "amenity": "clinic",
        "name": "Jesus Poderoso",
        "operator": "Minsa",
        "phone": "+511 4502516",
        "ref:category": "I-3",
        "ref:microred": "2",
        "ref:red": "2"
      },
      "geometry": {
        "type": "Point",
        "coordinates": [
          -76.951192,
          -12.1305597
        ]
      },
      "id": "node/7072946162"
    },
    {
      "type": "Feature",
      "properties": {
        "@id": "node/7072950123",
        "addr:street": "Avenida San Juan",
        "amenity": "clinic",
        "name": "Centro de Salud Militar \"SAN Juan\"",
        "operator": "Sanidad del Ejercito del Peru",
        "phone": "+511 2767241",
        "ref:category": "I-3",
        "ref:microred": "0",
        "ref:red": "0"
      },
      "geometry": {
        "type": "Point",
        "coordinates": [
          -76.9728448,
          -12.1659753
        ]
      },
      "id": "node/7072950123"
    },
    {
      "type": "Feature",
      "properties": {
        "@id": "node/7073099243",
        "amenity": "clinic",
        "name": "Policlinico Fiori",
        "operator": "Essalud",
        "phone": "+511 5343031",
        "ref:category": "I-3",
        "ref:microred": "0",
        "ref:red": "0"
      },
      "geometry": {
        "type": "Point",
        "coordinates": [
          -77.0592689,
          -12.0099265
        ]
      },
      "id": "node/7073099243"
    },
    {
      "type": "Feature",
      "properties": {
        "@id": "node/7073099244",
        "addr:full": "Jirón Sanchez Cerro 295 - Urb Mesa Redonda",
        "amenity": "clinic",
        "healthcare": "clinic",
        "name": "Centro de Salud Mesa Redonda",
        "operator": "Minsa",
        "ref:category": "I-2",
        "ref:microred": "2",
        "ref:red": "25"
      },
      "geometry": {
        "type": "Point",
        "coordinates": [
          -77.0574654,
          -12.0043652
        ]
      },
      "id": "node/7073099244"
    },
    {
      "type": "Feature",
      "properties": {
        "@id": "node/7073145982",
        "addr:full": "Universitaria 181 - Urb Condevilla",
        "amenity": "clinic",
        "name": "Centro de Salud Perú III Zona",
        "operator": "Minsa",
        "phone": "+511 6880396",
        "ref:category": "I-3",
        "ref:microred": "2",
        "ref:red": "25"
      },
      "geometry": {
        "type": "Point",
        "coordinates": [
          -77.0765005,
          -12.0285667
        ]
      },
      "id": "node/7073145982"
    },
    {
      "type": "Feature",
      "properties": {
        "@id": "node/7073145983",
        "addr:full": "Jirón Felix de Valle 505 - Urb Condevilla 2da Etapa",
        "amenity": "clinic",
        "name": "Gustavo Lanatta Lujan",
        "operator": "Minsa",
        "ref:category": "I-3",
        "ref:microred": "2",
        "ref:red": "25"
      },
      "geometry": {
        "type": "Point",
        "coordinates": [
          -77.0733361,
          -12.0242085
        ]
      },
      "id": "node/7073145983"
    },
    {
      "type": "Feature",
      "properties": {
        "@id": "node/7073145984",
        "addr:full": "Jirón José María Córdova 3397 - Urb Condevilla",
        "amenity": "clinic",
        "name": "Condevilla",
        "operator": "Minsa",
        "phone": "+511 5686161",
        "ref:category": "I-3",
        "ref:microred": "2",
        "ref:red": "25"
      },
      "geometry": {
        "type": "Point",
        "coordinates": [
          -77.0814255,
          -12.0213295
        ]
      },
      "id": "node/7073145984"
    },
    {
      "type": "Feature",
      "properties": {
        "@id": "node/7073176501",
        "addr:full": "Libertador Don Jose de San Martin N° 1055 - Asoc. de Vivienda los Libertadores",
        "amenity": "clinic",
        "name": "Los Libertadores",
        "operator": "Minsa",
        "phone": "+511 5312796",
        "ref:category": "I-3",
        "ref:microred": "2",
        "ref:red": "25"
      },
      "geometry": {
        "type": "Point",
        "coordinates": [
          -77.0894646,
          -12.0066058
        ]
      },
      "id": "node/7073176501"
    },
    {
      "type": "Feature",
      "properties": {
        "@id": "node/7073197922",
        "amenity": "clinic",
        "healthcare": "clinic",
        "name": "Ichoca",
        "operator": "Gobierno Regional",
        "operator:wikidata": "Q3824815",
        "phone": "+51 949991011",
        "ref:category": "I-1",
        "ref:microred": "4",
        "ref:red": "9"
      },
      "geometry": {
        "type": "Point",
        "coordinates": [
          -76.3595534,
          -11.8000275
        ]
      },
      "id": "node/7073197922"
    },
    {
      "type": "Feature",
      "properties": {
        "@id": "node/7073231209",
        "amenity": "clinic",
        "name": "Lanca",
        "operator": "Gobierno Regional",
        "phone": "+511 3539672",
        "ref:category": "I-3",
        "ref:microred": "3",
        "ref:red": "9"
      },
      "geometry": {
        "type": "Point",
        "coordinates": [
          -76.5446867,
          -11.8699067
        ]
      },
      "id": "node/7073231209"
    },
    {
      "type": "Feature",
      "properties": {
        "@id": "node/7073264065",
        "addr:full": "Centro Poblado Acos",
        "amenity": "clinic",
        "name": "Acos",
        "operator": "Gobierno Regional",
        "phone": "+51 945979675",
        "ref:category": "I-3",
        "ref:microred": "6",
        "ref:red": "3"
      },
      "geometry": {
        "type": "Point",
        "coordinates": [
          -76.8198766,
          -11.2738777
        ]
      },
      "id": "node/7073264065"
    },
    {
      "type": "Feature",
      "properties": {
        "@id": "node/7073265073",
        "addr:full": "Los Sauces Mz B-II Novena Etapa",
        "amenity": "clinic",
        "healthcare": "clinic",
        "name": "Huaca Pando",
        "operator": "Ministerio de Salud del Perú",
        "operator:short": "MINSA",
        "operator:wikidata": "Q3065012",
        "phone": "+511 4520272",
        "ref:category": "I-2",
        "ref:microred": "2",
        "ref:red": "21"
      },
      "geometry": {
        "type": "Point",
        "coordinates": [
          -77.0832585,
          -12.0616409
        ]
      },
      "id": "node/7073265073"
    },
    {
      "type": "Feature",
      "properties": {
        "@id": "node/7080096096",
        "addr:full": "Calle Mariano Melgar Mz. Bo Lte. 6 - Asociación Pueblo Nuevo",
        "amenity": "clinic",
        "name": "Buenos Aires",
        "operator": "Gobierno Regional",
        "phone": "+511 3539672",
        "ref:category": "I-3",
        "ref:microred": "3",
        "ref:red": "9"
      },
      "geometry": {
        "type": "Point",
        "coordinates": [
          -76.6731631,
          -11.9150728
        ]
      },
      "id": "node/7080096096"
    },
    {
      "type": "Feature",
      "properties": {
        "@id": "node/7080122525",
        "addr:street": "Avenida Rosa Davila",
        "amenity": "clinic",
        "name": "Cocachacra",
        "operator": "Gobierno Regional",
        "phone": "+511 3539672",
        "ref:category": "I-3",
        "ref:microred": "3",
        "ref:red": "9"
      },
      "geometry": {
        "type": "Point",
        "coordinates": [
          -76.5405283,
          -11.9093733
        ]
      },
      "id": "node/7080122525"
    },
    {
      "type": "Feature",
      "properties": {
        "@id": "node/7080130361",
        "addr:city": "Huacho",
        "addr:neighbourhood": "Barrio pequeño",
        "addr:street": "Jose Santos Chocano",
        "amenity": "clinic",
        "healthcare": "clinic",
        "healthcare:speciality": "paediatrics;internal",
        "name": "Posta de San Bartolomé",
        "operator": "Gobierno Regional",
        "operator:type": "public",
        "operator:wikidata": "Q3824815",
        "ref:category": "I-2",
        "ref:microred": "1",
        "ref:red": "2"
      },
      "geometry": {
        "type": "Point",
        "coordinates": [
          -77.5873781,
          -11.1072995
        ]
      },
      "id": "node/7080130361"
    },
    {
      "type": "Feature",
      "properties": {
        "@id": "node/7080164205",
        "addr:housenumber": "833",
        "addr:street": "Avenida Libertad",
        "amenity": "clinic",
        "name": "Santa Maria",
        "operator": "Gobierno Regional",
        "phone": "+511 2394102",
        "ref:category": "I-3",
        "ref:microred": "1",
        "ref:red": "2"
      },
      "geometry": {
        "type": "Point",
        "coordinates": [
          -77.574346,
          -11.0978301
        ]
      },
      "id": "node/7080164205"
    },
    {
      "type": "Feature",
      "properties": {
        "@id": "node/7080261750",
        "addr:housenumber": "220",
        "addr:street": "Calle Ferreñafe",
        "amenity": "clinic",
        "healthcare": "clinic",
        "name": "P.S. Las Flores",
        "operator": "Ministerio de Salud del Perú",
        "operator:short": "MINSA",
        "operator:wikidata": "Q3065012",
        "phone": "+511 4366962",
        "ref:category": "I-2",
        "ref:microred": "1",
        "ref:red": "1"
      },
      "geometry": {
        "type": "Point",
        "coordinates": [
          -76.975014,
          -12.107651
        ]
      },
      "id": "node/7080261750"
    },
    {
      "type": "Feature",
      "properties": {
        "@id": "node/7080291989",
        "addr:housenumber": "182",
        "addr:street": "Jirón Daniel Cornejo",
        "amenity": "clinic",
        "healthcare": "clinic",
        "name": "Centro de Salud Santiago de Surco",
        "operator": "Minsa",
        "phone": "+511 2477793; +511 2479043",
        "ref:category": "I-3",
        "ref:microred": "3",
        "ref:red": "1"
      },
      "geometry": {
        "type": "Point",
        "coordinates": [
          -77.0062017,
          -12.1473232
        ]
      },
      "id": "node/7080291989"
    },
    {
      "type": "Feature",
      "properties": {
        "@id": "node/7080291991",
        "addr:full": "Calle los Tilos 108 - Urbanización El Palmar",
        "amenity": "clinic",
        "healthcare": "clinic",
        "name": "Policlinico El Palmar S.A.",
        "operator:type": "private",
        "phone": "+511 4770422",
        "ref:category": "I-3",
        "ref:microred": "0",
        "ref:red": "0"
      },
      "geometry": {
        "type": "Point",
        "coordinates": [
          -77.0076752,
          -12.1505437
        ]
      },
      "id": "node/7080291991"
    },
    {
      "type": "Feature",
      "properties": {
        "@id": "node/7080561918",
        "addr:street": "Avenida Tupac Amaru",
        "amenity": "clinic",
        "name": "Sayan",
        "operator": "Gobierno Regional",
        "phone": "+511 2371013",
        "ref:category": "I-3",
        "ref:microred": "4",
        "ref:red": "2"
      },
      "geometry": {
        "type": "Point",
        "coordinates": [
          -77.1934194,
          -11.1319277
        ]
      },
      "id": "node/7080561918"
    },
    {
      "type": "Feature",
      "properties": {
        "@id": "node/7082510274",
        "addr:street": "Jirón Alfonso Ugarte Y Sanchez Cerro",
        "amenity": "clinic",
        "name": "San Geronimo de Surco",
        "operator": "Gobierno Regional",
        "phone": "+511 3559719",
        "ref:category": "I-3",
        "ref:microred": "4",
        "ref:red": "9"
      },
      "geometry": {
        "type": "Point",
        "coordinates": [
          -76.440288,
          -11.8848965
        ]
      },
      "id": "node/7082510274"
    },
    {
      "type": "Feature",
      "properties": {
        "@id": "node/7082518484",
        "addr:street": "Calle los Ruiseñores",
        "amenity": "clinic",
        "healthcare": "clinic",
        "name": "Policlinico Pnp Walter Rosales",
        "operator": "Sanidad de la Policia Nacional del Peru",
        "phone": "+511 2226318",
        "ref:category": "I-3",
        "ref:microred": "0",
        "ref:red": "0"
      },
      "geometry": {
        "type": "Point",
        "coordinates": [
          -77.0190228,
          -12.1157347
        ]
      },
      "id": "node/7082518484"
    },
    {
      "type": "Feature",
      "properties": {
        "@id": "node/7092029029",
        "addr:city": "Chorrillos",
        "addr:housenumber": "2007",
        "addr:street": "Avenida Defensores del Morro",
        "amenity": "clinic",
        "contact:facebook": "https://www.facebook.com/Chorrisalud/",
        "health_facility:type": "clinic",
        "healthcare": "yes",
        "healthcare:speciality": "general;pediatrics;cardiology;ophthalmology;mental_health;laboratory;neurology;dermatology;otorhinolaryngology",
        "name": "Policlinico Chorrisalud",
        "opening_hours": "Mo-Sa 08:00-20:00",
        "operator": "Municipalidad Distrital de Chorrillos",
        "operator:type": "government",
        "source": "Reconocimiento cartográfico de campo 2016 por KG"
      },
      "geometry": {
        "type": "Point",
        "coordinates": [
          -77.0137383,
          -12.1796526
        ]
      },
      "id": "node/7092029029"
    },
    {
      "type": "Feature",
      "properties": {
        "@id": "node/7113136276",
        "addr:street": "Calle General Varella",
        "amenity": "clinic",
        "name": "Yauyos",
        "operator": "Gobierno Regional",
        "ref:category": "I-3",
        "ref:microred": "4",
        "ref:red": "7"
      },
      "geometry": {
        "type": "Point",
        "coordinates": [
          -75.9163509,
          -12.4589743
        ]
      },
      "id": "node/7113136276"
    },
    {
      "type": "Feature",
      "properties": {
        "@id": "node/7129698885",
        "addr:housenumber": "164",
        "addr:street": "Avenida Miguel Grau",
        "amenity": "clinic",
        "contact:instagram": "https://instagram.com/dr.joserisk",
        "email": "dr.joserisco@gmail.com",
        "healthcare": "clinic",
        "name": "Medi Clinic",
        "name:en": "Medi Clinic (Miraflores)",
        "name:es": "Medi Clinic (Miraflores)",
        "opening_hours": "Mo-Tu 09:00-19:00; We 09:00-17:00; Th-Fr 09:00-19:00; Sa 09:00-17:00",
        "phone": "+51979671663"
      },
      "geometry": {
        "type": "Point",
        "coordinates": [
          -77.0348183,
          -12.119823
        ]
      },
      "id": "node/7129698885"
    },
    {
      "type": "Feature",
      "properties": {
        "@id": "node/7352168137",
        "addr:city": "Ancón",
        "amenity": "clinic",
        "healthcare": "clinic",
        "healthcare:speciality": "general;dentist;physiotherapy;psychology",
        "name": "Policlínico Naval de Ancón",
        "opening_hours": "24/7",
        "operator": "Marina de Guerra del Perú",
        "operator:type": "government",
        "website": "https://www.disamar.mil.pe/?view=articulo&id=8"
      },
      "geometry": {
        "type": "Point",
        "coordinates": [
          -77.1657255,
          -11.7493138
        ]
      },
      "id": "node/7352168137"
    },
    {
      "type": "Feature",
      "properties": {
        "@id": "node/7380307785",
        "addr:housenumber": "1044",
        "addr:street": "Avenida José Galvez Barrenechea",
        "amenity": "clinic",
        "name": "Clínica Aliada",
        "opening_hours": "24/7",
        "phone": "+51 1 6505000",
        "website": "https://www.aliada.com.pe"
      },
      "geometry": {
        "type": "Point",
        "coordinates": [
          -77.0108594,
          -12.1061684
        ]
      },
      "id": "node/7380307785"
    },
    {
      "type": "Feature",
      "properties": {
        "@id": "node/7541812701",
        "Source": "Actualizaciones en Peru. Reconocimiento cartográfico por KG 2016",
        "addr:city": "Chorrillos",
        "addr:housenumber": "118",
        "addr:street": "Jirón Ferrocarril",
        "amenity": "clinic",
        "healthcare": "clinic",
        "healthcare:speciality": "general;emergency",
        "name": "Centro de Emergencias San Pedro de los Chorrillos",
        "opening_hours": "24/7",
        "operator": "Ministerio de Salud",
        "operator:type": "government",
        "phone": "+51 1 4670684",
        "ref:category": "I-4",
        "ref:microred": "1",
        "ref:red": "1",
        "source": "Reconocimiento cartográfico de campo 2016 por KG"
      },
      "geometry": {
        "type": "Point",
        "coordinates": [
          -77.0236205,
          -12.1665818
        ]
      },
      "id": "node/7541812701"
    },
    {
      "type": "Feature",
      "properties": {
        "@id": "node/7552520836",
        "addr:city": "Surquillo",
        "addr:housenumber": "169",
        "addr:neighbourhood": "Los Sauces",
        "addr:street": "Pasaje Parque La India",
        "amenity": "clinic",
        "contact:facebook": "https://www.facebook.com/SaludOcupacionalHolomedic/",
        "email": "ventas@holomedic.com.pe",
        "healthcare": "clinic",
        "healthcare:speciality": "occupational",
        "name": "Holomedic Servicios Integrales S.A.C",
        "opening_hours": "Mo-Fr 07:00-16:00; Sa 07:00-13:00",
        "phone": "+51 1 4800217",
        "short_name": "Holomedic",
        "website": "https://www.holomedic.com.pe/"
      },
      "geometry": {
        "type": "Point",
        "coordinates": [
          -77.002106,
          -12.1196913
        ]
      },
      "id": "node/7552520836"
    },
    {
      "type": "Feature",
      "properties": {
        "@id": "node/7561126947",
        "addr:city": "Surquillo",
        "addr:housenumber": "1070",
        "addr:street": "Calle General Suárez",
        "amenity": "clinic",
        "healthcare": "clinic",
        "healthcare:speciality": "general",
        "name": "Policlínico Suárez",
        "opening_hours": "Mo-Sa 07:00-20:00",
        "operator": "EsSalud",
        "operator:type": "private",
        "phone": "+51 1 4441985",
        "website": "http://www.essalud.gob.pe/nuestras-redes-asistenciales/surquillo/"
      },
      "geometry": {
        "type": "Point",
        "coordinates": [
          -77.0273064,
          -12.1096617
        ]
      },
      "id": "node/7561126947"
    },
    {
      "type": "Feature",
      "properties": {
        "@id": "node/7657266220",
        "addr:city": "San Martín de Porres",
        "addr:housenumber": "1834",
        "addr:state": "Lima",
        "addr:street": "Avenida Perú",
        "amenity": "hospital",
        "emergency": "no",
        "healthcare": "centre",
        "healthcare:speciality": "radiology",
        "name": "JARA med",
        "operator": "Servicios medicos",
        "operator:type": "private"
      },
      "geometry": {
        "type": "Point",
        "coordinates": [
          -77.0653723,
          -12.0318854
        ]
      },
      "id": "node/7657266220"
    },
    {
      "type": "Feature",
      "properties": {
        "@id": "node/7697963590",
        "addr:housenumber": "865",
        "addr:street": "Calle San Aurelio",
        "amenity": "clinic",
        "healthcare": "clinic",
        "name": "Worker's Health"
      },
      "geometry": {
        "type": "Point",
        "coordinates": [
          -77.0006413,
          -12.0191397
        ]
      },
      "id": "node/7697963590"
    },
    {
      "type": "Feature",
      "properties": {
        "@id": "node/7802249348",
        "addr:street": "Jirón Mariano Baldarrago",
        "amenity": "clinic",
        "name": "Centro de salud mental comunitario David Tejada de Rivero",
        "operator": "Minsa",
        "ref:category": "I-2"
      },
      "geometry": {
        "type": "Point",
        "coordinates": [
          -76.9975308,
          -12.0513357
        ]
      },
      "id": "node/7802249348"
    },
    {
      "type": "Feature",
      "properties": {
        "@id": "node/7804608510",
        "addr:housenumber": "745",
        "addr:street": "Jirón Villa Maria",
        "amenity": "clinic",
        "name": "Centro de Salud Villa María del Perpetuo Socorro",
        "operator": "Minsa",
        "ref:category": "I-3"
      },
      "geometry": {
        "type": "Point",
        "coordinates": [
          -77.054784,
          -12.0377921
        ]
      },
      "id": "node/7804608510"
    },
    {
      "type": "Feature",
      "properties": {
        "@id": "node/7804675378",
        "addr:housenumber": "488",
        "addr:street": "Jirón Conde de la Vega Baja",
        "amenity": "clinic",
        "name": "Conde de la Vega Baja",
        "operator": "Minsa",
        "phone": "+511 3301547",
        "ref:category": "I-3"
      },
      "geometry": {
        "type": "Point",
        "coordinates": [
          -77.0504397,
          -12.0390333
        ]
      },
      "id": "node/7804675378"
    },
    {
      "type": "Feature",
      "properties": {
        "@id": "node/7844298286",
        "addr:city": "La Molina",
        "addr:housenumber": "109",
        "addr:postcode": "15012",
        "addr:state": "Lima",
        "addr:street": "Santa Magdalena Sofía",
        "amenity": "clinic",
        "emergency": "yes",
        "healthcare": "clinic",
        "healthcare:speciality": "dentist",
        "name": "Centro Odontológico Americano"
      },
      "geometry": {
        "type": "Point",
        "coordinates": [
          -76.9650376,
          -12.0727079
        ]
      },
      "id": "node/7844298286"
    },
    {
      "type": "Feature",
      "properties": {
        "@id": "node/7947754879",
        "addr:city": "San Juan de Miraflores",
        "addr:street": "Calle Chepen",
        "amenity": "clinic",
        "contact:email": "comunicaciones@solidaridadenmarcha.org",
        "contact:facebook": "https://www.facebook.com/solidaridad.enmarcha/",
        "contact:instagram": "https://www.instagram.com/solidaridadenmarchaperu/",
        "contact:phone": "+511 4661310;+51 922 175 545",
        "contact:twitter": "https://twitter.com/SEM_Peru",
        "contact:website": "http://www.solidaridadenmarcha.org/",
        "contact:youtube": "https://www.youtube.com/channel/UCV_-CDY_I0XMpOQh5sYDCSw",
        "healthcare": "clinic",
        "healthcare:speciality": "general;paediatrics;gynaecology;ophthalmology;dermatology;traumatology;neurology;gastroenterology;otorhinolaryngology;psychology",
        "name": "Policlinico Sagrada Familia",
        "opening_hours": "Mo-Fr 09:00-18:00",
        "operator": "Asociación Solidaridad en Marcha",
        "operator:type": "private_non_profit"
      },
      "geometry": {
        "type": "Point",
        "coordinates": [
          -76.9692922,
          -12.1742671
        ]
      },
      "id": "node/7947754879"
    },
    {
      "type": "Feature",
      "properties": {
        "@id": "node/8284420064",
        "addr:full": "Avenida Antigua Panamericana Sur Kilómetro 36.5",
        "amenity": "clinic",
        "name": "Centro de Atencion Primaria II Lurin",
        "operator": "Essalud",
        "phone": "+51 1 4302139",
        "ref": "00009979",
        "ref:category": "I-3"
      },
      "geometry": {
        "type": "Point",
        "coordinates": [
          -76.8713437,
          -12.2756558
        ]
      },
      "id": "node/8284420064"
    },
    {
      "type": "Feature",
      "properties": {
        "@id": "node/8285263634",
        "addr:housenumber": "165",
        "addr:street": "Jirón Leoncio Prado",
        "amenity": "clinic",
        "name": "Primavera",
        "operator": "Gobierno Regional",
        "phone": "+51 1 7264808",
        "ref": "00005675",
        "ref:category": "I-2",
        "ref:microred": "2",
        "ref:red": "2"
      },
      "geometry": {
        "type": "Point",
        "coordinates": [
          -77.6099898,
          -11.0114769
        ]
      },
      "id": "node/8285263634"
    },
    {
      "type": "Feature",
      "properties": {
        "@id": "node/8285299511",
        "addr:street": "Calle Calle Nuevo Paraiso",
        "amenity": "clinic",
        "name": "Araya Grande",
        "operator": "Gobierno Regional",
        "phone": "+51 1 2352075",
        "ref": "00005689",
        "ref:category": "I-2",
        "ref:microred": "1",
        "ref:red": "1"
      },
      "geometry": {
        "type": "Point",
        "coordinates": [
          -77.6258212,
          -10.6741727
        ]
      },
      "id": "node/8285299511"
    },
    {
      "type": "Feature",
      "properties": {
        "@id": "node/8285316188",
        "addr:street": "Avenida Simón Bolívar",
        "amenity": "clinic",
        "name": "Medio Mundo",
        "operator": "Gobierno Regional",
        "phone": "+51 1 7656313",
        "ref": "00005677",
        "ref:category": "I-2",
        "ref:microred": "2",
        "ref:red": "2"
      },
      "geometry": {
        "type": "Point",
        "coordinates": [
          -77.6520178,
          -10.9279556
        ]
      },
      "id": "node/8285316188"
    },
    {
      "type": "Feature",
      "properties": {
        "@id": "node/8285443009",
        "amenity": "clinic",
        "name": "Omas",
        "operator": "Gobierno Regional",
        "phone": "+51 956856448",
        "ref": "00006061",
        "ref:category": "I-2",
        "ref:microred": "4",
        "ref:red": "8"
      },
      "geometry": {
        "type": "Point",
        "coordinates": [
          -76.2892614,
          -12.5164787
        ]
      },
      "id": "node/8285443009"
    },
    {
      "type": "Feature",
      "properties": {
        "@id": "node/8285484171",
        "addr:full": "Avenida Túpac Amaru",
        "amenity": "clinic",
        "name": "Buenos Aires",
        "operator": "Gobierno Regional",
        "phone": "+51 1 2363643",
        "ref": "00005713",
        "ref:category": "I-2",
        "ref:microred": "3",
        "ref:red": "1"
      },
      "geometry": {
        "type": "Point",
        "coordinates": [
          -77.7740392,
          -10.6954817
        ]
      },
      "id": "node/8285484171"
    },
    {
      "type": "Feature",
      "properties": {
        "@id": "node/8285518959",
        "amenity": "clinic",
        "name": "San Pedro de Pilas",
        "operator": "Gobierno Regional",
        "phone": "+51 1 5308188",
        "ref": "00006064",
        "ref:category": "I-2",
        "ref:microred": "4",
        "ref:red": "8"
      },
      "geometry": {
        "type": "Point",
        "coordinates": [
          -76.2268009,
          -12.4546456
        ]
      },
      "id": "node/8285518959"
    },
    {
      "type": "Feature",
      "properties": {
        "@id": "node/8285524026",
        "amenity": "clinic",
        "name": "Ayaviri",
        "operator": "Gobierno Regional",
        "phone": "+51 1 5308188",
        "ref": "00006058",
        "ref:category": "I-2",
        "ref:microred": "4",
        "ref:red": "8"
      },
      "geometry": {
        "type": "Point",
        "coordinates": [
          -76.1406559,
          -12.3831014
        ]
      },
      "id": "node/8285524026"
    },
    {
      "type": "Feature",
      "properties": {
        "@id": "node/8285539206",
        "addr:housenumber": "413",
        "addr:street": "Calle Arequipa",
        "amenity": "clinic",
        "name": "Herbay Bajo",
        "operator": "Gobierno Regional",
        "phone": "+51 945042943",
        "ref": "00006041",
        "ref:category": "I-2",
        "ref:microred": "1",
        "ref:red": "7"
      },
      "geometry": {
        "type": "Point",
        "coordinates": [
          -76.3942786,
          -13.1298797
        ]
      },
      "id": "node/8285539206"
    },
    {
      "type": "Feature",
      "properties": {
        "@id": "node/8285587592",
        "addr:street": "Calle Principal",
        "amenity": "clinic",
        "name": "Herbay Alto",
        "operator": "Gobierno Regional",
        "phone": "+51 945042936",
        "ref": "00006042",
        "ref:category": "I-2",
        "ref:microred": "1",
        "ref:red": "7"
      },
      "geometry": {
        "type": "Point",
        "coordinates": [
          -76.3471923,
          -13.1356085
        ]
      },
      "id": "node/8285587592"
    },
    {
      "type": "Feature",
      "properties": {
        "@id": "node/8292269357",
        "addr:street": "Avenida Lima",
        "amenity": "clinic",
        "name": "Piedra Grande",
        "operator": "Gobierno Regional",
        "phone": "+51 1 5308188",
        "ref": "00007642",
        "ref:category": "I-2",
        "ref:microred": "6",
        "ref:red": "8"
      },
      "geometry": {
        "type": "Point",
        "coordinates": [
          -76.4754177,
          -12.2573536
        ]
      },
      "id": "node/8292269357"
    },
    {
      "type": "Feature",
      "properties": {
        "@id": "node/8340574676",
        "addr:city": "Villa El Salvador",
        "addr:street": "Avenida Revolución",
        "amenity": "clinic",
        "contact:email": "corporacionbarizal@gmail.com",
        "contact:facebook": "https://www.facebook.com/PoliclinicoBarizal/",
        "contact:phone": "+51 920 086 287",
        "healthcare": "clinic",
        "name": "Policlínico Barizal",
        "opening_hours": "Mo-Fr 08:00-19:00; Sa 08:00-17:00; Su 08:00-13:00"
      },
      "geometry": {
        "type": "Point",
        "coordinates": [
          -76.9352232,
          -12.2156057
        ]
      },
      "id": "node/8340574676"
    },
    {
      "type": "Feature",
      "properties": {
        "@id": "node/8412649674",
        "addr:housenumber": "1449",
        "addr:street": "Jirón Chota",
        "amenity": "clinic",
        "name": "Centro Medico Ancije",
        "operator": "Essalud",
        "phone": "+51 1 3321603",
        "ref": "00008880",
        "ref:category": "I-3"
      },
      "geometry": {
        "type": "Point",
        "coordinates": [
          -77.040109,
          -12.059105
        ]
      },
      "id": "node/8412649674"
    },
    {
      "type": "Feature",
      "properties": {
        "@id": "node/8483461691",
        "addr:housenumber": "754",
        "addr:street": "Jirón Las Gardenias",
        "amenity": "clinic",
        "email": "informes@clinicasanmiguel.pe",
        "healthcare": "clinic",
        "name": "Clínica San Miguel",
        "phone": "+51 1 387 5457;+51 1 3878953",
        "website": "https://www.clinicasanmiguel.pe/"
      },
      "geometry": {
        "type": "Point",
        "coordinates": [
          -77.001649,
          -11.9704052
        ]
      },
      "id": "node/8483461691"
    },
    {
      "type": "Feature",
      "properties": {
        "@id": "node/8625869406",
        "addr:city": "Lima",
        "addr:housenumber": "131",
        "addr:postcode": "15074",
        "addr:street": "Calle General Federico Recavarren",
        "amenity": "clinic",
        "healthcare": "clinic",
        "healthcare:speciality": "general;orthodontics;dental_oral_maxillo_facial_surgery;smile_desing;endodontics;periodontics;implantology",
        "name": "Inspira Sonrisas"
      },
      "geometry": {
        "type": "Point",
        "coordinates": [
          -77.0335139,
          -12.1197817
        ]
      },
      "id": "node/8625869406"
    },
    {
      "type": "Feature",
      "properties": {
        "@id": "node/8699377510",
        "addr:street": "Avenida Húsares de Junín",
        "amenity": "clinic",
        "healthcare": "clinic",
        "name": "Policlínico Gestión Médica"
      },
      "geometry": {
        "type": "Point",
        "coordinates": [
          -77.0497939,
          -12.0781821
        ]
      },
      "id": "node/8699377510"
    },
    {
      "type": "Feature",
      "properties": {
        "@id": "node/8898718424",
        "amenity": "clinic",
        "name": "Centro de Atención Integral Policlínico Chincha"
      },
      "geometry": {
        "type": "Point",
        "coordinates": [
          -77.0341855,
          -12.0455939
        ]
      },
      "id": "node/8898718424"
    },
    {
      "type": "Feature",
      "properties": {
        "@id": "node/9268171962",
        "addr:city": "Cercado de Lima",
        "addr:housenumber": "560",
        "addr:state": "Lima",
        "addr:street": "Avenida Alfonso Ugarte",
        "amenity": "clinic",
        "healthcare": "clinic",
        "healthcare:speciality": "radiology",
        "name": "Instituto de Imágenes Médicas",
        "phone": "+5114232309",
        "website": "https://www.institutodeimagenesmedicas.com/"
      },
      "geometry": {
        "type": "Point",
        "coordinates": [
          -77.0424307,
          -12.0472149
        ]
      },
      "id": "node/9268171962"
    },
    {
      "type": "Feature",
      "properties": {
        "@id": "node/9276293523",
        "addr:housenumber": "2717",
        "addr:street": "Avenida Proceres de la Independencia",
        "amenity": "clinic",
        "healthcare": "clinic",
        "name": "Doctor Luis Quito"
      },
      "geometry": {
        "type": "Point",
        "coordinates": [
          -77.0079582,
          -11.9863579
        ]
      },
      "id": "node/9276293523"
    },
    {
      "type": "Feature",
      "properties": {
        "@id": "node/9311289839",
        "addr:city": "Santiago de Surco",
        "addr:housenumber": "4005",
        "addr:state": "Lima",
        "addr:street": "Avenida Javier Prado Este",
        "amenity": "clinic",
        "contact:facebook": "https://www.facebook.com/Clinicaplasticakalieskaarroyo/",
        "email": "consultas@clinicaplastica.com.pe",
        "healthcare": "clinic",
        "name": "Clinica Plastica Kalieska Arroyo",
        "phone": "+51 1 2500707",
        "start_date": "1998",
        "website": "https://clinicaplastica.com.pe/"
      },
      "geometry": {
        "type": "Point",
        "coordinates": [
          -76.9786058,
          -12.084277
        ]
      },
      "id": "node/9311289839"
    },
    {
      "type": "Feature",
      "properties": {
        "@id": "node/9364787369",
        "addr:housenumber": "1199",
        "addr:street": "Avenida Brasil",
        "amenity": "clinic",
        "name": "Clinica Bella Forma",
        "website": "https://bellaforma.com/"
      },
      "geometry": {
        "type": "Point",
        "coordinates": [
          -77.0502734,
          -12.0712241
        ]
      },
      "id": "node/9364787369"
    },
    {
      "type": "Feature",
      "properties": {
        "@id": "node/9604464829",
        "amenity": "clinic",
        "healthcare": "clinic",
        "name": "Centro de Salud Mental Comunitario Nuevo Perú"
      },
      "geometry": {
        "type": "Point",
        "coordinates": [
          -77.0180662,
          -12.0030655
        ]
      },
      "id": "node/9604464829"
    },
    {
      "type": "Feature",
      "properties": {
        "@id": "node/9676166114",
        "addr:district": "San Juan de Lurigancho",
        "addr:housenumber": "1724",
        "addr:postcode": "15431",
        "addr:state": "Lima",
        "addr:street": "Avenida Próceres de la Independencia",
        "amenity": "clinic",
        "description": "Atenciones primarias de salud, medicina, obstetricia, psicologia, nutricion y odontologia",
        "healthcare": "clinic",
        "healthcare:speciality": "general;paediatrics;dentistry;dialysis;chiropractic;vaccination;ophthalmology;orthodontics;gynaecology;emergency;cardiology;dermatology;radiology;maternity;surgery;oncology;biology",
        "level": "2",
        "name": "Centro Clinico de la Familia",
        "opening_hours": "Mo-Sa 08:00-20:00",
        "operator:type": "private"
      },
      "geometry": {
        "type": "Point",
        "coordinates": [
          -77.0061216,
          -12.0050035
        ]
      },
      "id": "node/9676166114"
    },
    {
      "type": "Feature",
      "properties": {
        "@id": "node/10104739679",
        "amenity": "clinic",
        "healthcare": "clinic",
        "name": "Guizado"
      },
      "geometry": {
        "type": "Point",
        "coordinates": [
          -77.0121409,
          -12.0162077
        ]
      },
      "id": "node/10104739679"
    },
    {
      "type": "Feature",
      "properties": {
        "@id": "node/10155794464",
        "addr:housenumber": "740",
        "addr:street": "Avenida Grau",
        "amenity": "clinic",
        "name": "Dr. Luis Quito"
      },
      "geometry": {
        "type": "Point",
        "coordinates": [
          -77.0233091,
          -12.0584971
        ]
      },
      "id": "node/10155794464"
    },
    {
      "type": "Feature",
      "properties": {
        "@id": "node/10281072218",
        "addr:city": "Lima",
        "addr:district": "La Molina",
        "addr:street": "Avenida Raúl Ferrero",
        "amenity": "clinic",
        "healthcare": "clinic",
        "healthcare:speciality": "psychiatry",
        "name": "Centro de Salud Mental Comunitario La Molina",
        "nohousenumber": "yes",
        "note": "Diresa: LIMA DIRIS ESTE Red: No pertenece a ninguna red Dirección: Avenida Raul Ferrero Cuadra 5",
        "operator": "Ministerio de Salud",
        "operator:short": "MINSA",
        "operator:type": "public",
        "operator:wikidata": "Q3065012",
        "phone": "+51 1 7659964",
        "ref:category": "I-3",
        "short_name": "CSMC La Molina"
      },
      "geometry": {
        "type": "Point",
        "coordinates": [
          -76.9425292,
          -12.0875116
        ]
      },
      "id": "node/10281072218"
    },
    {
      "type": "Feature",
      "properties": {
        "@id": "node/11023041254",
        "addr:district": "Santiago de Surco",
        "addr:housenumber": "4462",
        "addr:street": "Avenida Alfredo Benavides",
        "amenity": "clinic",
        "contact:facebook": "https://www.facebook.com/mediestheticperu",
        "contact:instagram": "https://www.instagram.com/mediestheticperu/",
        "contact:phone": "+ 51 14483600;+51 1 4483660",
        "contact:website": "https://www.mediesthetic.com.pe/",
        "healthcare": "clinic",
        "healthcare:speciality": "dermatology",
        "name": "Medi Esthetic",
        "opening_hours": "Mo-Sa 08:00-19:00"
      },
      "geometry": {
        "type": "Point",
        "coordinates": [
          -76.9904273,
          -12.1282072
        ]
      },
      "id": "node/11023041254"
    },
    {
      "type": "Feature",
      "properties": {
        "@id": "node/11066758336",
        "addr:city": "Santa Anita",
        "addr:housenumber": "175",
        "addr:postcode": "43",
        "addr:state": "Lima",
        "addr:street": "Perdices",
        "amenity": "clinic",
        "healthcare": "clinic",
        "healthcare:speciality": "general",
        "name": "Clínica de Salud Ocupacional i-SALUD",
        "opening_hours": "Mo-Sa 08:00-16:00"
      },
      "geometry": {
        "type": "Point",
        "coordinates": [
          -76.9643435,
          -12.0541308
        ]
      },
      "id": "node/11066758336"
    },
    {
      "type": "Feature",
      "properties": {
        "@id": "node/11333755184",
        "amenity": "clinic",
        "name": "Medical Health Home"
      },
      "geometry": {
        "type": "Point",
        "coordinates": [
          -77.0640228,
          -12.0896289
        ]
      },
      "id": "node/11333755184"
    },
    {
      "type": "Feature",
      "properties": {
        "@id": "node/11360850024",
        "amenity": "clinic",
        "name": "Clínica de ojos Ñahui"
      },
      "geometry": {
        "type": "Point",
        "coordinates": [
          -77.0650184,
          -12.0890678
        ]
      },
      "id": "node/11360850024"
    },
    {
      "type": "Feature",
      "properties": {
        "@id": "node/11365141951",
        "amenity": "clinic",
        "healthcare": "clinic"
      },
      "geometry": {
        "type": "Point",
        "coordinates": [
          -76.9637011,
          -12.0539585
        ]
      },
      "id": "node/11365141951"
    }
  ]
}